<?xml version='1.0' encoding='utf-8'?>
<kml xmlns="http://www.opengis.net/kml/2.2">
  <Document>
    <name>D11 10/4 大洋路东段</name>
    <Style id="sty_d11">
      <IconStyle>
        <scale>1.0</scale>
        <Icon>
          <href>http://maps.google.com/mapfiles/kml/paddle/pink-circle.png</href>
        </Icon>
      </IconStyle>
    </Style>
    <Style id="sty_d11_line">
      <LineStyle>
        <color>7fc472ff</color>
        <width>3</width>
      </LineStyle>
    </Style>
    <Folder>
      <name>D11 10/4 大洋路东段</name>
      <Placemark>
        <name>D11-1 Puffing Billy Rai…</name>
        <styleUrl>#sty_d11</styleUrl>
        <description>&lt;b&gt;日期&lt;/b&gt; 2026-10-04 · 第11天&lt;br/&gt;&lt;br/&gt;&lt;b&gt;当日序号&lt;/b&gt; 1&lt;br/&gt;&lt;br/&gt;&lt;b&gt;状态&lt;/b&gt; 本次要看&lt;br/&gt;&lt;br/&gt;&lt;b&gt;看点&lt;/b&gt;&lt;br/&gt;【可选】窄轨蒸汽铁路；取 Belgrave→Menzies Creek 往返（单程25分钟），含免费铁路博物馆。&lt;br/&gt;&lt;br/&gt;&lt;b&gt;天气&lt;/b&gt;&lt;br/&gt;**天气（长年气候参考，非逐日预报）：**吉朗（Geelong）／安格尔西（Anglesea）／Aireys Inlet（艾瑞斯湾）／洛恩（Lorne）／肯尼特河（Kennett River）／阿波罗湾（Apollo Bay）通常约8—18°C。Surf Coast和大洋路沿海可能在一天内反复出现阵雨、海雾与强侧风；准备防风防水外层，驾车进入连续弯道前确认精神状态。&lt;br/&gt;&lt;br/&gt;&lt;b&gt;停留时长&lt;/b&gt; 可选约2小时（火车往返50分钟＋博物馆约70分钟）&lt;br/&gt;&lt;br/&gt;&lt;b&gt;交通&lt;/b&gt; 吉朗码头驾车约107公里／约1小时45分到 Belgrave&lt;br/&gt;&lt;br/&gt;&lt;b&gt;备注&lt;/b&gt;&lt;br/&gt;【可选】仅在 Spirit of Tasmania 07:00 准点抵港时执行；官方要求发车前60分钟到票房、09:30 硬截止。必须官网预约。10/6 中午国际航班前不可行。&lt;br/&gt;&lt;br/&gt;&lt;b&gt;英文／检索名&lt;/b&gt; Puffing Billy Railway, Belgrave VIC&lt;br/&gt;&lt;br/&gt;&lt;b&gt;坐标来源&lt;/b&gt; known</description>
        <Point>
          <coordinates>145.3556,-37.9075,0</coordinates>
        </Point>
      </Placemark>
      <Placemark>
        <name>D11-2 安格尔西海滩</name>
        <styleUrl>#sty_d11</styleUrl>
        <description>&lt;b&gt;日期&lt;/b&gt; 2026-10-04 · 第11天&lt;br/&gt;&lt;br/&gt;&lt;b&gt;当日序号&lt;/b&gt; 2&lt;br/&gt;&lt;br/&gt;&lt;b&gt;状态&lt;/b&gt; 本次要看&lt;br/&gt;&lt;br/&gt;&lt;b&gt;看点&lt;/b&gt;&lt;br/&gt;开阔沙滩和Surf Coast海风，夜航后恢复站。&lt;br/&gt;&lt;br/&gt;&lt;b&gt;天气&lt;/b&gt;&lt;br/&gt;**天气（长年气候参考，非逐日预报）：**吉朗（Geelong）／安格尔西（Anglesea）／Aireys Inlet（艾瑞斯湾）／洛恩（Lorne）／肯尼特河（Kennett River）／阿波罗湾（Apollo Bay）通常约8—18°C。Surf Coast和大洋路沿海可能在一天内反复出现阵雨、海雾与强侧风；准备防风防水外层，驾车进入连续弯道前确认精神状态。&lt;br/&gt;&lt;br/&gt;&lt;b&gt;停留时长&lt;/b&gt; 约40分钟&lt;br/&gt;&lt;br/&gt;&lt;b&gt;交通&lt;/b&gt; 驾车约56公里自吉朗&lt;br/&gt;&lt;br/&gt;&lt;b&gt;备注&lt;/b&gt;&lt;br/&gt;疲劳时可删减。&lt;br/&gt;&lt;br/&gt;&lt;b&gt;英文／检索名&lt;/b&gt; Anglesea Beach, Anglesea VIC&lt;br/&gt;&lt;br/&gt;&lt;b&gt;坐标来源&lt;/b&gt; known</description>
        <Point>
          <coordinates>144.185,-38.406,0</coordinates>
        </Point>
      </Placemark>
      <Placemark>
        <name>D11-3 小红帽灯塔</name>
        <styleUrl>#sty_d11</styleUrl>
        <description>&lt;b&gt;日期&lt;/b&gt; 2026-10-04 · 第11天&lt;br/&gt;&lt;br/&gt;&lt;b&gt;当日序号&lt;/b&gt; 3&lt;br/&gt;&lt;br/&gt;&lt;b&gt;状态&lt;/b&gt; 本次要看&lt;br/&gt;&lt;br/&gt;&lt;b&gt;看点&lt;/b&gt;&lt;br/&gt;红色塔顶、白色塔身与鹰岩海岸；外围观景步道即可。&lt;br/&gt;&lt;br/&gt;&lt;b&gt;天气&lt;/b&gt;&lt;br/&gt;**天气（长年气候参考，非逐日预报）：**吉朗（Geelong）／安格尔西（Anglesea）／Aireys Inlet（艾瑞斯湾）／洛恩（Lorne）／肯尼特河（Kennett River）／阿波罗湾（Apollo Bay）通常约8—18°C。Surf Coast和大洋路沿海可能在一天内反复出现阵雨、海雾与强侧风；准备防风防水外层，驾车进入连续弯道前确认精神状态。&lt;br/&gt;&lt;br/&gt;&lt;b&gt;停留时长&lt;/b&gt; 约40分钟&lt;br/&gt;&lt;br/&gt;&lt;b&gt;交通&lt;/b&gt; 驾车约10公里&lt;br/&gt;&lt;br/&gt;&lt;b&gt;备注&lt;/b&gt;&lt;br/&gt;不把登塔导览设为硬任务。&lt;br/&gt;&lt;br/&gt;&lt;b&gt;英文／检索名&lt;/b&gt; Split Point Lighthouse, Aireys Inlet VIC&lt;br/&gt;&lt;br/&gt;&lt;b&gt;坐标来源&lt;/b&gt; known</description>
        <Point>
          <coordinates>144.105,-38.465,0</coordinates>
        </Point>
      </Placemark>
      <Placemark>
        <name>D11-4 大洋路纪念拱门</name>
        <styleUrl>#sty_d11</styleUrl>
        <description>&lt;b&gt;日期&lt;/b&gt; 2026-10-04 · 第11天&lt;br/&gt;&lt;br/&gt;&lt;b&gt;当日序号&lt;/b&gt; 4&lt;br/&gt;&lt;br/&gt;&lt;b&gt;状态&lt;/b&gt; 本次要看&lt;br/&gt;&lt;br/&gt;&lt;b&gt;看点&lt;/b&gt;&lt;br/&gt;纪念一战归国军人修建大洋路；理解道路作为战争纪念工程的历史。&lt;br/&gt;&lt;br/&gt;&lt;b&gt;天气&lt;/b&gt;&lt;br/&gt;**天气（长年气候参考，非逐日预报）：**吉朗（Geelong）／安格尔西（Anglesea）／Aireys Inlet（艾瑞斯湾）／洛恩（Lorne）／肯尼特河（Kennett River）／阿波罗湾（Apollo Bay）通常约8—18°C。Surf Coast和大洋路沿海可能在一天内反复出现阵雨、海雾与强侧风；准备防风防水外层，驾车进入连续弯道前确认精神状态。&lt;br/&gt;&lt;br/&gt;&lt;b&gt;停留时长&lt;/b&gt; 约20分钟&lt;br/&gt;&lt;br/&gt;&lt;b&gt;交通&lt;/b&gt; 驾车约16公里&lt;br/&gt;&lt;br/&gt;&lt;b&gt;备注&lt;/b&gt;&lt;br/&gt;正式停车区短停拍照。&lt;br/&gt;&lt;br/&gt;&lt;b&gt;英文／检索名&lt;/b&gt; Great Ocean Road Memorial Arch, Eastern View VIC&lt;br/&gt;&lt;br/&gt;&lt;b&gt;坐标来源&lt;/b&gt; known</description>
        <Point>
          <coordinates>144.025,-38.475,0</coordinates>
        </Point>
      </Placemark>
      <Placemark>
        <name>D11-5 泰迪观景台</name>
        <styleUrl>#sty_d11</styleUrl>
        <description>&lt;b&gt;日期&lt;/b&gt; 2026-10-04 · 第11天&lt;br/&gt;&lt;br/&gt;&lt;b&gt;当日序号&lt;/b&gt; 5&lt;br/&gt;&lt;br/&gt;&lt;b&gt;状态&lt;/b&gt; 本次要看&lt;br/&gt;&lt;br/&gt;&lt;b&gt;看点&lt;/b&gt;&lt;br/&gt;俯瞰大洋路贴着海崖转弯、圣乔治河汇入海湾的经典视角。&lt;br/&gt;&lt;br/&gt;&lt;b&gt;天气&lt;/b&gt;&lt;br/&gt;**天气（长年气候参考，非逐日预报）：**吉朗（Geelong）／安格尔西（Anglesea）／Aireys Inlet（艾瑞斯湾）／洛恩（Lorne）／肯尼特河（Kennett River）／阿波罗湾（Apollo Bay）通常约8—18°C。Surf Coast和大洋路沿海可能在一天内反复出现阵雨、海雾与强侧风；准备防风防水外层，驾车进入连续弯道前确认精神状态。&lt;br/&gt;&lt;br/&gt;&lt;b&gt;停留时长&lt;/b&gt; 约30分钟&lt;br/&gt;&lt;br/&gt;&lt;b&gt;交通&lt;/b&gt; 驾车约14公里&lt;br/&gt;&lt;br/&gt;&lt;b&gt;备注&lt;/b&gt;&lt;br/&gt;本日最经典高位全景。&lt;br/&gt;&lt;br/&gt;&lt;b&gt;英文／检索名&lt;/b&gt; Teddy&amp;#x27;s Lookout, Lorne VIC&lt;br/&gt;&lt;br/&gt;&lt;b&gt;坐标来源&lt;/b&gt; known</description>
        <Point>
          <coordinates>143.975,-38.545,0</coordinates>
        </Point>
      </Placemark>
      <Placemark>
        <name>D11-6 肯尼特河</name>
        <styleUrl>#sty_d11</styleUrl>
        <description>&lt;b&gt;日期&lt;/b&gt; 2026-10-04 · 第11天&lt;br/&gt;&lt;br/&gt;&lt;b&gt;当日序号&lt;/b&gt; 6&lt;br/&gt;&lt;br/&gt;&lt;b&gt;状态&lt;/b&gt; 本次要看&lt;br/&gt;&lt;br/&gt;&lt;b&gt;看点&lt;/b&gt;&lt;br/&gt;桉树林中野生考拉与王鹦鹉；午后考拉多在树上休息，不保证见到。&lt;br/&gt;&lt;br/&gt;&lt;b&gt;天气&lt;/b&gt;&lt;br/&gt;**天气（长年气候参考，非逐日预报）：**吉朗（Geelong）／安格尔西（Anglesea）／Aireys Inlet（艾瑞斯湾）／洛恩（Lorne）／肯尼特河（Kennett River）／阿波罗湾（Apollo Bay）通常约8—18°C。Surf Coast和大洋路沿海可能在一天内反复出现阵雨、海雾与强侧风；准备防风防水外层，驾车进入连续弯道前确认精神状态。&lt;br/&gt;&lt;br/&gt;&lt;b&gt;停留时长&lt;/b&gt; 约1小时&lt;br/&gt;&lt;br/&gt;&lt;b&gt;交通&lt;/b&gt; 驾车约24公里自洛恩&lt;br/&gt;&lt;br/&gt;&lt;b&gt;备注&lt;/b&gt;&lt;br/&gt;不喂食、不进入私人地。&lt;br/&gt;&lt;br/&gt;&lt;b&gt;英文／检索名&lt;/b&gt; Kennett River, Victoria&lt;br/&gt;&lt;br/&gt;&lt;b&gt;坐标来源&lt;/b&gt; known</description>
        <Point>
          <coordinates>143.84,-38.665,0</coordinates>
        </Point>
      </Placemark>
      <Placemark>
        <name>D11-7 阿波罗湾</name>
        <styleUrl>#sty_d11</styleUrl>
        <description>&lt;b&gt;日期&lt;/b&gt; 2026-10-04 · 第11天&lt;br/&gt;&lt;br/&gt;&lt;b&gt;当日序号&lt;/b&gt; 7&lt;br/&gt;&lt;br/&gt;&lt;b&gt;状态&lt;/b&gt; 本次要看&lt;br/&gt;&lt;br/&gt;&lt;b&gt;看点&lt;/b&gt;&lt;br/&gt;弧形海湾、渔港和Otways雨林门户；傍晚海滨散步。&lt;br/&gt;&lt;br/&gt;&lt;b&gt;天气&lt;/b&gt;&lt;br/&gt;**天气（长年气候参考，非逐日预报）：**吉朗（Geelong）／安格尔西（Anglesea）／Aireys Inlet（艾瑞斯湾）／洛恩（Lorne）／肯尼特河（Kennett River）／阿波罗湾（Apollo Bay）通常约8—18°C。Surf Coast和大洋路沿海可能在一天内反复出现阵雨、海雾与强侧风；准备防风防水外层，驾车进入连续弯道前确认精神状态。&lt;br/&gt;&lt;br/&gt;&lt;b&gt;停留时长&lt;/b&gt; 过夜&lt;br/&gt;&lt;br/&gt;&lt;b&gt;交通&lt;/b&gt; 驾车约23公里&lt;br/&gt;&lt;br/&gt;&lt;b&gt;备注&lt;/b&gt;&lt;br/&gt;酒店或Apollo Bay Holiday Park车宿（须书面同意）。&lt;br/&gt;&lt;br/&gt;【愿望清单·景点／自然】&lt;br/&gt;Apollo Bay 接近雨林与海湾；Lorne 兼具瀑布与度假文化；Torquay 是冲浪产业和 Bells Beach 门户。三个点不宜同日都深玩。  &lt;br/&gt;**深度补充：**Apollo Bay连接海湾与Otways雨林，Lorne兼有瀑布、河口和海滩，Torquay则面向开放冲浪海岸。三个镇功能不同；同日路线应把Apollo Bay作为午餐、Lorne与Torquay择一深停。  &lt;br/&gt;**扩展阅读：**[景点／自然官方资料](https://www.visitgreatoceanroad.org.au/)&lt;br/&gt;&lt;br/&gt;【愿望清单·人文】&lt;br/&gt;Torquay 与 Rip Curl、Quiksilver 等澳洲冲浪品牌史相连；大洋路沿线的海滨度假文化也反映墨尔本人周末生活方式。  &lt;br/&gt;**深度补充：**Torquay与Rip Curl、Quiksilver等冲浪品牌及Bells Beach赛事文化相连；Lorne代表历史度假镇与艺术节传统，Apollo Bay则保留渔业和雨林门户身份。  &lt;br/&gt;**扩展阅读：**[人文／历史延伸阅读](https://australiannationalsurfingmuseum.com.au/)&lt;br/&gt;&lt;br/&gt;【愿望清单·本次建议】&lt;br/&gt;10/5 走线；Apollo Bay 午餐，Lorne／Torquay 二选一深停。  &lt;br/&gt;**已纳入本次行程**&lt;br/&gt;&lt;br/&gt;&lt;b&gt;英文／检索名&lt;/b&gt; Apollo Bay, Victoria&lt;br/&gt;&lt;br/&gt;&lt;b&gt;坐标来源&lt;/b&gt; known</description>
        <Point>
          <coordinates>143.67,-38.755,0</coordinates>
        </Point>
      </Placemark>
      <Placemark>
        <name>D11 当日路线</name>
        <styleUrl>#sty_d11_line</styleUrl>
        <description>第11天按顺序串联（示意）</description>
        <LineString>
          <tessellate>1</tessellate>
          <coordinates>144.185,-38.406,0 144.105,-38.465,0 144.025,-38.475,0 143.975,-38.545,0 143.84,-38.665,0 143.67,-38.755,0</coordinates>
        </LineString>
      </Placemark>
      <description>点位数：7</description>
    </Folder>
  </Document>
</kml>