<?xml version='1.0' encoding='utf-8'?>
<kml xmlns="http://www.opengis.net/kml/2.2">
  <Document>
    <name>D11 10/4 吉朗→十二门徒</name>
    <Style id="sty_d11">
      <IconStyle>
        <scale>1.0</scale>
        <Icon>
          <href>http://maps.google.com/mapfiles/kml/paddle/pink-circle.png</href>
        </Icon>
      </IconStyle>
    </Style>
    <Style id="sty_d11_line">
      <LineStyle>
        <color>7fc472ff</color>
        <width>3</width>
      </LineStyle>
    </Style>
    <Style id="sty_confirmed_lodging">
      <IconStyle>
        <scale>1.0</scale>
        <Icon>
          <href>http://maps.google.com/mapfiles/kml/pal2/icon10.png</href>
        </Icon>
      </IconStyle>
    </Style>
    <Folder>
      <name>D11 10/4 吉朗→十二门徒</name>
      <Placemark>
        <name>D11-1 十二门徒岩</name>
        <styleUrl>#sty_d11</styleUrl>
        <description>&lt;b&gt;日期&lt;/b&gt; 2026-10-04 · 第11天&lt;br/&gt;&lt;br/&gt;&lt;b&gt;当日序号&lt;/b&gt; 1&lt;br/&gt;&lt;br/&gt;&lt;b&gt;状态&lt;/b&gt; 本次要看&lt;br/&gt;&lt;br/&gt;&lt;b&gt;看点&lt;/b&gt;&lt;br/&gt;抵达后先完成沉船海岸核心主观景台。&lt;br/&gt;&lt;br/&gt;&lt;b&gt;天气&lt;/b&gt;&lt;br/&gt;**天气（长年气候参考，非逐日预报）：**吉朗约8—18°C，十二门徒／沉船海岸约8—17°C；沿海可能反复出现阵雨、海雾与强侧风。准备防风防水外层。&lt;br/&gt;&lt;br/&gt;&lt;b&gt;停留时长&lt;/b&gt; 约1小时&lt;br/&gt;&lt;br/&gt;&lt;b&gt;交通&lt;/b&gt; 吉朗码头经内陆约230公里&lt;br/&gt;&lt;br/&gt;&lt;b&gt;备注&lt;/b&gt;&lt;br/&gt;免费无需预约。&lt;br/&gt;&lt;br/&gt;【愿望清单·景点／自然】&lt;br/&gt;海蚀洞—拱门—独立岩柱持续演化；名称虽叫十二门徒，形成与存留的岩柱数量并非固定 12。[官方建议日出或日落看颜色变化](https://www.visitvictoria.com/Regions/Great-Ocean-Road/see-and-do/Nature-and-wildlife/Beaches-and-coastlines/12-Apostles.aspx)。  &lt;br/&gt;**深度补充：**岩柱来自石灰岩海岸被浪蚀成洞穴、拱门再坍塌为孤柱；数量从来不是稳定的“十二”。日出与日落分别强调轮廓和金色岩面，风、海雾和雨会快速改变能见度。  &lt;br/&gt;**扩展阅读：**[景点／自然官方资料](https://www.visitvictoria.com/regions/great-ocean-road/see-and-do/nature-and-wildlife/beaches-and-coastlines/12-apostles)&lt;br/&gt;&lt;br/&gt;【愿望清单·人文】&lt;br/&gt;位于 Eastern Maar／Gadubanud cultural landscape。殖民旅游命名不应遮住传统土地与持续的海岸文化联系。  &lt;br/&gt;**深度补充：**旅游命名从“ Sow and Piglets”改为Twelve Apostles，显示品牌如何重塑地景；它位于Eastern Maar/Gadubanud文化景观，现代游客中心与步道更新也涉及Traditional Owner合作。  &lt;br/&gt;**扩展阅读：**[人文／历史延伸阅读](https://www.easternmaar.com.au/)&lt;br/&gt;&lt;br/&gt;【愿望清单·本次建议】&lt;br/&gt;10/4从Geelong经内陆直达后，约11:00—12:00保留完整主观景台时间；当晚住景区附近。  &lt;br/&gt;**已纳入本次行程**&lt;br/&gt;&lt;br/&gt;&lt;b&gt;英文／检索名&lt;/b&gt; Twelve Apostles, Great Ocean Road VIC&lt;br/&gt;&lt;br/&gt;&lt;b&gt;坐标来源&lt;/b&gt; known</description>
        <Point>
          <coordinates>143.1048,-38.6655,0</coordinates>
        </Point>
      </Placemark>
      <Placemark>
        <name>D11-2 吉布森阶梯</name>
        <styleUrl>#sty_d11</styleUrl>
        <description>&lt;b&gt;日期&lt;/b&gt; 2026-10-04 · 第11天&lt;br/&gt;&lt;br/&gt;&lt;b&gt;当日序号&lt;/b&gt; 2&lt;br/&gt;&lt;br/&gt;&lt;b&gt;状态&lt;/b&gt; 本次要看&lt;br/&gt;&lt;br/&gt;&lt;b&gt;看点&lt;/b&gt;&lt;br/&gt;从崖底仰望高崖和岩柱；受落石、潮位和大浪影响。&lt;br/&gt;&lt;br/&gt;&lt;b&gt;天气&lt;/b&gt;&lt;br/&gt;**天气（长年气候参考，非逐日预报）：**吉朗约8—18°C，十二门徒／沉船海岸约8—17°C；沿海可能反复出现阵雨、海雾与强侧风。准备防风防水外层。&lt;br/&gt;&lt;br/&gt;&lt;b&gt;停留时长&lt;/b&gt; 约40分钟&lt;br/&gt;&lt;br/&gt;&lt;b&gt;交通&lt;/b&gt; 十二门徒附近&lt;br/&gt;&lt;br/&gt;&lt;b&gt;备注&lt;/b&gt;&lt;br/&gt;关闭时不进入。&lt;br/&gt;&lt;br/&gt;&lt;b&gt;英文／检索名&lt;/b&gt; Gibson Steps, Great Ocean Road VIC&lt;br/&gt;&lt;br/&gt;&lt;b&gt;坐标来源&lt;/b&gt; known</description>
        <Point>
          <coordinates>143.1,-38.67,0</coordinates>
        </Point>
      </Placemark>
      <Placemark>
        <name>D11-3 坎贝尔港</name>
        <styleUrl>#sty_d11</styleUrl>
        <description>&lt;b&gt;日期&lt;/b&gt; 2026-10-04 · 第11天&lt;br/&gt;&lt;br/&gt;&lt;b&gt;当日序号&lt;/b&gt; 3&lt;br/&gt;&lt;br/&gt;&lt;b&gt;状态&lt;/b&gt; 本次要看&lt;br/&gt;&lt;br/&gt;&lt;b&gt;看点&lt;/b&gt;&lt;br/&gt;午餐、加油和恢复体力。&lt;br/&gt;&lt;br/&gt;&lt;b&gt;天气&lt;/b&gt;&lt;br/&gt;**天气（长年气候参考，非逐日预报）：**吉朗约8—18°C，十二门徒／沉船海岸约8—17°C；沿海可能反复出现阵雨、海雾与强侧风。准备防风防水外层。&lt;br/&gt;&lt;br/&gt;&lt;b&gt;停留时长&lt;/b&gt; 约1小时&lt;br/&gt;&lt;br/&gt;&lt;b&gt;交通&lt;/b&gt; 驾车约12公里&lt;br/&gt;&lt;br/&gt;&lt;b&gt;备注&lt;/b&gt;&lt;br/&gt;不安排西向远程景点。&lt;br/&gt;&lt;br/&gt;【愿望清单·景点／自然】&lt;br/&gt;适合作为看日落与日出的住宿基地，餐饮和补给选择有限，旺季需提前订。  &lt;br/&gt;**深度补充：**镇位于受保护的小海湾，是沉船海岸少数可集中补给、住宿和步行的基地。周边悬崖暴露、天气多变，住一晚能把十二门徒日落和次日日出拆开，避免夜驾。  &lt;br/&gt;**扩展阅读：**[景点／自然官方资料](https://www.visitvictoria.com/regions/great-ocean-road/destinations/port-campbell)&lt;br/&gt;&lt;br/&gt;【愿望清单·人文】&lt;br/&gt;港镇服务于渔业、道路旅游与国家公园；它的价值是把大洋路从赶路变成慢看，而不只是“离十二门徒最近”。  &lt;br/&gt;**深度补充：**渔业、道路旅游与国家公园服务共同塑造小镇。它也说明大洋路从战间期交通工程转为全球旅游线路后，地方住房、季节就业与环境承载面临的压力。  &lt;br/&gt;**扩展阅读：**[人文／历史延伸阅读](https://www.corangamite.vic.gov.au/Places-and-Events/Towns/Port-Campbell)&lt;br/&gt;&lt;br/&gt;【愿望清单·本次建议】&lt;br/&gt;10/4约13:00午餐、加油与休整；当晚住Twelve Apostles Motel &amp;amp; Country Retreat。  &lt;br/&gt;**已纳入本次行程（补给短停）**&lt;br/&gt;&lt;br/&gt;&lt;b&gt;英文／检索名&lt;/b&gt; Port Campbell, Victoria&lt;br/&gt;&lt;br/&gt;&lt;b&gt;坐标来源&lt;/b&gt; known</description>
        <Point>
          <coordinates>142.995,-38.619,0</coordinates>
        </Point>
      </Placemark>
      <Placemark>
        <name>D11-4 洛克阿德峡谷</name>
        <styleUrl>#sty_d11</styleUrl>
        <description>&lt;b&gt;日期&lt;/b&gt; 2026-10-04 · 第11天&lt;br/&gt;&lt;br/&gt;&lt;b&gt;当日序号&lt;/b&gt; 4&lt;br/&gt;&lt;br/&gt;&lt;b&gt;状态&lt;/b&gt; 本次要看&lt;br/&gt;&lt;br/&gt;&lt;b&gt;看点&lt;/b&gt;&lt;br/&gt;沉船海岸经典峡谷；按开放步道游览。&lt;br/&gt;&lt;br/&gt;&lt;b&gt;天气&lt;/b&gt;&lt;br/&gt;**天气（长年气候参考，非逐日预报）：**吉朗约8—18°C，十二门徒／沉船海岸约8—17°C；沿海可能反复出现阵雨、海雾与强侧风。准备防风防水外层。&lt;br/&gt;&lt;br/&gt;&lt;b&gt;停留时长&lt;/b&gt; 约1小时15分&lt;br/&gt;&lt;br/&gt;&lt;b&gt;交通&lt;/b&gt; 坎贝尔港附近&lt;br/&gt;&lt;br/&gt;&lt;b&gt;备注&lt;/b&gt;&lt;br/&gt;10月4日下午完成；夜航后疲劳时可缩短。&lt;br/&gt;&lt;br/&gt;【愿望清单·景点／自然】&lt;br/&gt;石灰岩峡湾与步道以 1878 年 Loch Ard 号沉船命名；海况猛烈，不能下到封闭区域或跨护栏。  &lt;br/&gt;**深度补充：**狭窄峡口、垂直石灰岩壁和强浪展示海蚀洞—峡湾持续演化。不同支线通往主海湾、Razorback等视角，封闭会随侵蚀与施工变化，必须以现场为准。  &lt;br/&gt;**扩展阅读：**[景点／自然官方资料](https://www.visitvictoria.com/regions/great-ocean-road/see-and-do/nature-and-wildlife/beaches-and-coastlines/loch-ard-gorge)&lt;br/&gt;&lt;br/&gt;【愿望清单·人文】&lt;br/&gt;仅两名幸存者 Tom Pearce 与 Eva Carmichael 的故事成为 Shipwreck Coast 最常讲述的海难叙事；阅读现场牌示能让地貌不只是“拍照点”。  &lt;br/&gt;**深度补充：**1878年Loch Ard号沉船仅Tom Pearce与Eva Carmichael幸存，故事塑造“Shipwreck Coast”公共记忆。现场命名、纪念和浪漫化叙事值得与真实移民航运风险比较。  &lt;br/&gt;**扩展阅读：**[人文／历史延伸阅读](https://collections.museumsvictoria.com.au/articles/3731)&lt;br/&gt;&lt;br/&gt;【愿望清单·本次建议】&lt;br/&gt;10/4下午在Twelve Apostles与Port Campbell之后游览，按开放步道保留约1小时；夜航后疲劳时可缩短。  &lt;br/&gt;**已纳入本次行程**&lt;br/&gt;&lt;br/&gt;&lt;b&gt;英文／检索名&lt;/b&gt; Loch Ard Gorge, Port Campbell VIC&lt;br/&gt;&lt;br/&gt;&lt;b&gt;坐标来源&lt;/b&gt; known</description>
        <Point>
          <coordinates>143.07,-38.647,0</coordinates>
        </Point>
      </Placemark>
      <Placemark>
        <name>D11-5 Twelve Apostles M…</name>
        <styleUrl>#sty_confirmed_lodging</styleUrl>
        <description>&lt;b&gt;日期&lt;/b&gt; 2026-10-04 · 第11天&lt;br/&gt;&lt;br/&gt;&lt;b&gt;当日序号&lt;/b&gt; 5&lt;br/&gt;&lt;br/&gt;&lt;b&gt;状态&lt;/b&gt; 本次要看&lt;br/&gt;&lt;br/&gt;&lt;b&gt;看点&lt;/b&gt;&lt;br/&gt;已确认的十二门徒景区附近住宿。&lt;br/&gt;&lt;br/&gt;&lt;b&gt;天气&lt;/b&gt;&lt;br/&gt;**天气（长年气候参考，非逐日预报）：**吉朗约8—18°C，十二门徒／沉船海岸约8—17°C；沿海可能反复出现阵雨、海雾与强侧风。准备防风防水外层。&lt;br/&gt;&lt;br/&gt;&lt;b&gt;停留时长&lt;/b&gt; 过夜&lt;br/&gt;&lt;br/&gt;&lt;b&gt;交通&lt;/b&gt; 景区短程驾车&lt;br/&gt;&lt;br/&gt;&lt;b&gt;备注&lt;/b&gt;&lt;br/&gt;10月4日入住、10月5日退房。&lt;br/&gt;&lt;br/&gt;&lt;b&gt;英文／检索名&lt;/b&gt; Twelve Apostles Motel &amp;amp; Country Retreat, 314 Booringa Road, Princetown VIC 3269&lt;br/&gt;&lt;br/&gt;&lt;b&gt;坐标来源&lt;/b&gt; google_maps</description>
        <Point>
          <coordinates>143.1102845,-38.6353855,0</coordinates>
        </Point>
      </Placemark>
      <Placemark>
        <name>D11 当日路线</name>
        <styleUrl>#sty_d11_line</styleUrl>
        <description>第11天按顺序串联（示意）</description>
        <LineString>
          <tessellate>1</tessellate>
          <coordinates>143.1048,-38.6655,0 143.1,-38.67,0 142.995,-38.619,0 143.1102845,-38.6353855,0</coordinates>
        </LineString>
      </Placemark>
      <description>点位数：5</description>
    </Folder>
  </Document>
</kml>