<?xml version='1.0' encoding='utf-8'?>
<kml xmlns="http://www.opengis.net/kml/2.2">
  <Document>
    <name>D12–13 10/5–6 大洋路东段／St Kilda／墨尔本</name>
    <Style id="sty_d1213">
      <IconStyle>
        <scale>1.0</scale>
        <Icon>
          <href>http://maps.google.com/mapfiles/kml/paddle/wht-circle.png</href>
        </Icon>
      </IconStyle>
    </Style>
    <Style id="sty_d1213_line">
      <LineStyle>
        <color>7f00a5ff</color>
        <width>3</width>
      </LineStyle>
    </Style>
    <Style id="sty_confirmed_lodging">
      <IconStyle>
        <scale>1.0</scale>
        <Icon>
          <href>http://maps.google.com/mapfiles/kml/pal2/icon10.png</href>
        </Icon>
      </IconStyle>
    </Style>
    <Folder>
      <name>D12–13 10/5–6 大洋路东段／St Kilda／墨尔本</name>
      <Placemark>
        <name>D12-1 梅茨雨林步道</name>
        <styleUrl>#sty_d1213</styleUrl>
        <description>&lt;b&gt;日期&lt;/b&gt; 2026-10-05 · 第12天&lt;br/&gt;&lt;br/&gt;&lt;b&gt;当日序号&lt;/b&gt; 1&lt;br/&gt;&lt;br/&gt;&lt;b&gt;状态&lt;/b&gt; 本次要看&lt;br/&gt;&lt;br/&gt;&lt;b&gt;看点&lt;/b&gt;&lt;br/&gt;约800米温带雨林轻量环线。&lt;br/&gt;&lt;br/&gt;&lt;b&gt;天气&lt;/b&gt;&lt;br/&gt;**天气（长年气候参考，非逐日预报）：**大奥特韦／阿波罗湾约6—17°C，大洋路东段约8—18°C，墨尔本约9—20°C；海岸强风、急雨和海雾变化快。&lt;br/&gt;&lt;br/&gt;&lt;b&gt;停留时长&lt;/b&gt; 约45分钟&lt;br/&gt;&lt;br/&gt;&lt;b&gt;交通&lt;/b&gt; 从Princetown向东行驶&lt;br/&gt;&lt;br/&gt;&lt;b&gt;备注&lt;/b&gt;&lt;br/&gt;关闭或雨势过大时跳过。&lt;br/&gt;&lt;br/&gt;&lt;b&gt;英文／检索名&lt;/b&gt; Maits Rest Rainforest Walk, Great Otway National Park VIC&lt;br/&gt;&lt;br/&gt;&lt;b&gt;坐标来源&lt;/b&gt; known</description>
        <Point>
          <coordinates>143.555,-38.755,0</coordinates>
        </Point>
      </Placemark>
      <Placemark>
        <name>D12-2 阿波罗湾</name>
        <styleUrl>#sty_d1213</styleUrl>
        <description>&lt;b&gt;日期&lt;/b&gt; 2026-10-05 · 第12天&lt;br/&gt;&lt;br/&gt;&lt;b&gt;当日序号&lt;/b&gt; 2&lt;br/&gt;&lt;br/&gt;&lt;b&gt;状态&lt;/b&gt; 本次要看&lt;br/&gt;&lt;br/&gt;&lt;b&gt;看点&lt;/b&gt;&lt;br/&gt;大洋路海湾小镇，早餐或补给短停。&lt;br/&gt;&lt;br/&gt;&lt;b&gt;天气&lt;/b&gt;&lt;br/&gt;**天气（长年气候参考，非逐日预报）：**大奥特韦／阿波罗湾约6—17°C，大洋路东段约8—18°C，墨尔本约9—20°C；海岸强风、急雨和海雾变化快。&lt;br/&gt;&lt;br/&gt;&lt;b&gt;停留时长&lt;/b&gt; 约30分钟&lt;br/&gt;&lt;br/&gt;&lt;b&gt;交通&lt;/b&gt; Maits Rest以东&lt;br/&gt;&lt;br/&gt;&lt;b&gt;备注&lt;/b&gt;&lt;br/&gt;不安排长时间停留。&lt;br/&gt;&lt;br/&gt;【愿望清单·景点／自然】&lt;br/&gt;Apollo Bay 接近雨林与海湾；Lorne 兼具瀑布与度假文化；Torquay 是冲浪产业和 Bells Beach 门户。三个点不宜同日都深玩。  &lt;br/&gt;**深度补充：**Apollo Bay连接海湾与Otways雨林，Lorne兼有瀑布、河口和海滩，Torquay则面向开放冲浪海岸。三个镇功能不同；同日路线应把Apollo Bay作为午餐、Lorne与Torquay择一深停。  &lt;br/&gt;**扩展阅读：**[景点／自然官方资料](https://www.visitgreatoceanroad.org.au/)&lt;br/&gt;&lt;br/&gt;【愿望清单·人文】&lt;br/&gt;Torquay 与 Rip Curl、Quiksilver 等澳洲冲浪品牌史相连；大洋路沿线的海滨度假文化也反映墨尔本人周末生活方式。  &lt;br/&gt;**深度补充：**Torquay与Rip Curl、Quiksilver等冲浪品牌及Bells Beach赛事文化相连；Lorne代表历史度假镇与艺术节传统，Apollo Bay则保留渔业和雨林门户身份。  &lt;br/&gt;**扩展阅读：**[人文／历史延伸阅读](https://australiannationalsurfingmuseum.com.au/)&lt;br/&gt;&lt;br/&gt;【愿望清单·本次建议】&lt;br/&gt;10/5从Princetown沿大洋路向东：Apollo Bay作早餐／补给短停，经Kennett River、Lorne附近Teddy’s Lookout和Memorial Arch后前往St Kilda；Torquay不专程深玩。  &lt;br/&gt;**已纳入本次行程**&lt;br/&gt;&lt;br/&gt;&lt;b&gt;英文／检索名&lt;/b&gt; Apollo Bay, Victoria&lt;br/&gt;&lt;br/&gt;&lt;b&gt;坐标来源&lt;/b&gt; known</description>
        <Point>
          <coordinates>143.67,-38.755,0</coordinates>
        </Point>
      </Placemark>
      <Placemark>
        <name>D12-3 肯尼特河</name>
        <styleUrl>#sty_d1213</styleUrl>
        <description>&lt;b&gt;日期&lt;/b&gt; 2026-10-05 · 第12天&lt;br/&gt;&lt;br/&gt;&lt;b&gt;当日序号&lt;/b&gt; 3&lt;br/&gt;&lt;br/&gt;&lt;b&gt;状态&lt;/b&gt; 本次要看&lt;br/&gt;&lt;br/&gt;&lt;b&gt;看点&lt;/b&gt;&lt;br/&gt;桉树林中寻找野生考拉与鸟类。&lt;br/&gt;&lt;br/&gt;&lt;b&gt;天气&lt;/b&gt;&lt;br/&gt;**天气（长年气候参考，非逐日预报）：**大奥特韦／阿波罗湾约6—17°C，大洋路东段约8—18°C，墨尔本约9—20°C；海岸强风、急雨和海雾变化快。&lt;br/&gt;&lt;br/&gt;&lt;b&gt;停留时长&lt;/b&gt; 约40分钟&lt;br/&gt;&lt;br/&gt;&lt;b&gt;交通&lt;/b&gt; 阿波罗湾以东约23公里&lt;br/&gt;&lt;br/&gt;&lt;b&gt;备注&lt;/b&gt;&lt;br/&gt;不喂食、不进入私人地。&lt;br/&gt;&lt;br/&gt;&lt;b&gt;英文／检索名&lt;/b&gt; Kennett River, Victoria&lt;br/&gt;&lt;br/&gt;&lt;b&gt;坐标来源&lt;/b&gt; known</description>
        <Point>
          <coordinates>143.84,-38.665,0</coordinates>
        </Point>
      </Placemark>
      <Placemark>
        <name>D12-4 泰迪观景台</name>
        <styleUrl>#sty_d1213</styleUrl>
        <description>&lt;b&gt;日期&lt;/b&gt; 2026-10-05 · 第12天&lt;br/&gt;&lt;br/&gt;&lt;b&gt;当日序号&lt;/b&gt; 4&lt;br/&gt;&lt;br/&gt;&lt;b&gt;状态&lt;/b&gt; 本次要看&lt;br/&gt;&lt;br/&gt;&lt;b&gt;看点&lt;/b&gt;&lt;br/&gt;俯瞰海崖公路、河谷和海湾。&lt;br/&gt;&lt;br/&gt;&lt;b&gt;天气&lt;/b&gt;&lt;br/&gt;**天气（长年气候参考，非逐日预报）：**大奥特韦／阿波罗湾约6—17°C，大洋路东段约8—18°C，墨尔本约9—20°C；海岸强风、急雨和海雾变化快。&lt;br/&gt;&lt;br/&gt;&lt;b&gt;停留时长&lt;/b&gt; 约30分钟&lt;br/&gt;&lt;br/&gt;&lt;b&gt;交通&lt;/b&gt; 继续沿大洋路东行&lt;br/&gt;&lt;br/&gt;&lt;b&gt;备注&lt;/b&gt;&lt;br/&gt;延误时可删除。&lt;br/&gt;&lt;br/&gt;&lt;b&gt;英文／检索名&lt;/b&gt; Teddy&amp;#x27;s Lookout, Lorne VIC&lt;br/&gt;&lt;br/&gt;&lt;b&gt;坐标来源&lt;/b&gt; known</description>
        <Point>
          <coordinates>143.975,-38.545,0</coordinates>
        </Point>
      </Placemark>
      <Placemark>
        <name>D12-5 大洋路纪念拱门</name>
        <styleUrl>#sty_d1213</styleUrl>
        <description>&lt;b&gt;日期&lt;/b&gt; 2026-10-05 · 第12天&lt;br/&gt;&lt;br/&gt;&lt;b&gt;当日序号&lt;/b&gt; 5&lt;br/&gt;&lt;br/&gt;&lt;b&gt;状态&lt;/b&gt; 本次要看&lt;br/&gt;&lt;br/&gt;&lt;b&gt;看点&lt;/b&gt;&lt;br/&gt;理解大洋路作为战争纪念工程的历史。&lt;br/&gt;&lt;br/&gt;&lt;b&gt;天气&lt;/b&gt;&lt;br/&gt;**天气（长年气候参考，非逐日预报）：**大奥特韦／阿波罗湾约6—17°C，大洋路东段约8—18°C，墨尔本约9—20°C；海岸强风、急雨和海雾变化快。&lt;br/&gt;&lt;br/&gt;&lt;b&gt;停留时长&lt;/b&gt; 约20分钟&lt;br/&gt;&lt;br/&gt;&lt;b&gt;交通&lt;/b&gt; 正式停车区短停&lt;br/&gt;&lt;br/&gt;&lt;b&gt;备注&lt;/b&gt;&lt;br/&gt;随后直接前往St Kilda。&lt;br/&gt;&lt;br/&gt;&lt;b&gt;英文／检索名&lt;/b&gt; Great Ocean Road Memorial Arch, Eastern View VIC&lt;br/&gt;&lt;br/&gt;&lt;b&gt;坐标来源&lt;/b&gt; known</description>
        <Point>
          <coordinates>144.025,-38.475,0</coordinates>
        </Point>
      </Placemark>
      <Placemark>
        <name>D12-6 圣基尔达企鹅观赏平台</name>
        <styleUrl>#sty_d1213</styleUrl>
        <description>&lt;b&gt;日期&lt;/b&gt; 2026-10-05 · 第12天&lt;br/&gt;&lt;br/&gt;&lt;b&gt;当日序号&lt;/b&gt; 6&lt;br/&gt;&lt;br/&gt;&lt;b&gt;状态&lt;/b&gt; 本次要看&lt;br/&gt;&lt;br/&gt;&lt;b&gt;看点&lt;/b&gt;&lt;br/&gt;St Kilda Pier／Breakwater高架平台观看小蓝企鹅归巢。&lt;br/&gt;&lt;br/&gt;&lt;b&gt;天气&lt;/b&gt;&lt;br/&gt;**天气（长年气候参考，非逐日预报）：**大奥特韦／阿波罗湾约6—17°C，大洋路东段约8—18°C，墨尔本约9—20°C；海岸强风、急雨和海雾变化快。&lt;br/&gt;&lt;br/&gt;&lt;b&gt;停留时长&lt;/b&gt; 第一场约19:57起（票面为准）&lt;br/&gt;&lt;br/&gt;&lt;b&gt;交通&lt;/b&gt; 从大洋路东段直接驶往St Kilda&lt;br/&gt;&lt;br/&gt;&lt;b&gt;备注&lt;/b&gt;&lt;br/&gt;免费但必须持票；目标第一场。&lt;br/&gt;&lt;br/&gt;【愿望清单·景点／自然】&lt;br/&gt;St Kilda Pier／Breakwater高架平台可观看野生小蓝企鹅日落后归巢；免费但必须持票。  &lt;br/&gt;**扩展阅读：**[官方资料](https://www.penguins.org.au/)&lt;br/&gt;&lt;br/&gt;【愿望清单·人文】&lt;br/&gt;城市海滨企鹅群体现基础设施、游客管理与野生动物栖息地保护之间的平衡；只在指定平台观看，不自行进入Breakwater。&lt;br/&gt;&lt;br/&gt;【愿望清单·本次建议】&lt;br/&gt;10/5已纳入：14:15—14:30前离开沉船海岸，直接到St Kilda，不先回酒店；&amp;lt;span style=&amp;quot;background-color:#FFF3CD;color:#856404;&amp;quot;&amp;gt;【待定-2】目标第一场约19:57，最终以票面为准&amp;lt;/span&amp;gt;。  &lt;br/&gt;**已纳入本次行程**&lt;br/&gt;&lt;br/&gt;&lt;b&gt;英文／检索名&lt;/b&gt; St Kilda Pier Penguin Viewing Platform, Melbourne VIC&lt;br/&gt;&lt;br/&gt;&lt;b&gt;坐标来源&lt;/b&gt; known</description>
        <Point>
          <coordinates>144.9731,-37.8648,0</coordinates>
        </Point>
      </Placemark>
      <Placemark>
        <name>D12-7 Brady Hotels Cent…</name>
        <styleUrl>#sty_confirmed_lodging</styleUrl>
        <description>&lt;b&gt;日期&lt;/b&gt; 2026-10-05 · 第12天&lt;br/&gt;&lt;br/&gt;&lt;b&gt;当日序号&lt;/b&gt; 7&lt;br/&gt;&lt;br/&gt;&lt;b&gt;状态&lt;/b&gt; 本次要看&lt;br/&gt;&lt;br/&gt;&lt;b&gt;看点&lt;/b&gt;&lt;br/&gt;已确认的墨尔本CBD住宿；企鹅观赏后入住。&lt;br/&gt;&lt;br/&gt;&lt;b&gt;天气&lt;/b&gt;&lt;br/&gt;**天气（长年气候参考，非逐日预报）：**大奥特韦／阿波罗湾约6—17°C，大洋路东段约8—18°C，墨尔本约9—20°C；海岸强风、急雨和海雾变化快。&lt;br/&gt;&lt;br/&gt;&lt;b&gt;停留时长&lt;/b&gt; 过夜&lt;br/&gt;&lt;br/&gt;&lt;b&gt;交通&lt;/b&gt; St Kilda至酒店约7公里&lt;br/&gt;&lt;br/&gt;&lt;b&gt;备注&lt;/b&gt;&lt;br/&gt;10月5日入住、10月6日退房。&lt;br/&gt;&lt;br/&gt;&lt;b&gt;英文／检索名&lt;/b&gt; Brady Hotels Central Melbourne, 30 Little La Trobe Street, Melbourne VIC 3000&lt;br/&gt;&lt;br/&gt;&lt;b&gt;坐标来源&lt;/b&gt; google_maps</description>
        <Point>
          <coordinates>144.9627017,-37.8092243,0</coordinates>
        </Point>
      </Placemark>
      <Placemark>
        <name>D13-1 维多利亚女王市场</name>
        <styleUrl>#sty_d1213</styleUrl>
        <description>&lt;b&gt;日期&lt;/b&gt; 2026-10-06 · 第13天&lt;br/&gt;&lt;br/&gt;&lt;b&gt;当日序号&lt;/b&gt; 1&lt;br/&gt;&lt;br/&gt;&lt;b&gt;状态&lt;/b&gt; 本次要看&lt;br/&gt;&lt;br/&gt;&lt;b&gt;看点&lt;/b&gt;&lt;br/&gt;1878年延续至今的工作型市场、鲜食大厅、移民饮食和露天棚架；周二07:00—08:00适合早餐并看生鲜摊开市。&lt;br/&gt;&lt;br/&gt;&lt;b&gt;天气&lt;/b&gt;&lt;br/&gt;**天气（长年气候参考，非逐日预报）：**墨尔本中央商务区（Melbourne CBD）／Queen Victoria Market（维多利亚女王市场）／墨尔本机场（Melbourne Airport）通常约9—20°C，清晨偏凉且可能阵雨；香港国际机场（Hong Kong International Airport）10月上旬通常约24—30°C，仍可能受强降雨或热带气旋影响；北京（Beijing）约9—22°C，晴燥且昼夜温差大。随身保留薄外套；出发前24小时重点查香港热带气旋信号，因为60分钟转机几乎没有吸收延误的余量。[BOM墨尔本气候](https://www.bom.gov.au/climate/averages/tables/cw_086282.shtml)｜[香港天文台机场气候](https://www.hko.gov.hk/en/aviat/amt/monthlymean.htm)。&lt;br/&gt;&lt;br/&gt;&lt;b&gt;停留时长&lt;/b&gt; 约1小时&lt;br/&gt;&lt;br/&gt;&lt;b&gt;交通&lt;/b&gt; 酒店步行约0.5—2公里&lt;br/&gt;&lt;br/&gt;&lt;b&gt;备注&lt;/b&gt;&lt;br/&gt;周二06:00—15:00；specialty shopping 09:00才开。当天不去远郊。&lt;br/&gt;&lt;br/&gt;【愿望清单·景点／自然】&lt;br/&gt;大型传统市场，开放日和营业时段分区不同；不是每天所有摊位都开。  &lt;br/&gt;**深度补充：**市场不同棚区经营鲜肉、海产、蔬果、熟食和日用品；开放日与各区时间不同，周二清晨最能看到工作型市场而非纯游客场景。改造工程会造成摊位临时迁移。  &lt;br/&gt;**扩展阅读：**[景点／自然官方资料](https://qvm.com.au/visit-us/)&lt;br/&gt;&lt;br/&gt;【愿望清单·人文】&lt;br/&gt;1878 年开业，部分市场建在旧 Melbourne General Cemetery 地段之上，市场更新也牵涉遗产、墓地和城市公共空间讨论。  &lt;br/&gt;**深度补充：**1878年开业，部分市场位于旧Melbourne General Cemetery之上，更新计划因此涉及遗产、墓地与公共空间争议。市场也记录多代移民如何通过食物进入城市生活。  &lt;br/&gt;**扩展阅读：**[人文／历史延伸阅读](https://qvm.com.au/about/)&lt;br/&gt;&lt;br/&gt;【愿望清单·本次建议】&lt;br/&gt;只有10/6营业且时间充足才短逛；不影响机场出发。  &lt;br/&gt;**已纳入本次行程**&lt;br/&gt;&lt;br/&gt;&lt;b&gt;英文／检索名&lt;/b&gt; Queen Victoria Market, Melbourne VIC&lt;br/&gt;&lt;br/&gt;&lt;b&gt;坐标来源&lt;/b&gt; known</description>
        <Point>
          <coordinates>144.9568,-37.8076,0</coordinates>
        </Point>
      </Placemark>
      <Placemark>
        <name>D12 当日路线</name>
        <styleUrl>#sty_d1213_line</styleUrl>
        <description>第12天按顺序串联（示意）</description>
        <LineString>
          <tessellate>1</tessellate>
          <coordinates>143.555,-38.755,0 143.67,-38.755,0 143.84,-38.665,0 143.975,-38.545,0 144.025,-38.475,0 144.9731,-37.8648,0 144.9627017,-37.8092243,0</coordinates>
        </LineString>
      </Placemark>
      <description>点位数：8</description>
    </Folder>
  </Document>
</kml>