<?xml version='1.0' encoding='utf-8'?>
<kml xmlns="http://www.opengis.net/kml/2.2">
  <Document>
    <name>D12–13 10/5–6 沉船海岸／St Kilda／墨尔本</name>
    <Style id="sty_d1213">
      <IconStyle>
        <scale>1.0</scale>
        <Icon>
          <href>http://maps.google.com/mapfiles/kml/paddle/wht-circle.png</href>
        </Icon>
      </IconStyle>
    </Style>
    <Style id="sty_d1213_line">
      <LineStyle>
        <color>7f00a5ff</color>
        <width>3</width>
      </LineStyle>
    </Style>
    <Folder>
      <name>D12–13 10/5–6 沉船海岸／St Kilda／墨尔本</name>
      <Placemark>
        <name>D12-1 梅茨雨林步道</name>
        <styleUrl>#sty_d1213</styleUrl>
        <description>&lt;b&gt;日期&lt;/b&gt; 2026-10-05 · 第12天&lt;br/&gt;&lt;br/&gt;&lt;b&gt;当日序号&lt;/b&gt; 1&lt;br/&gt;&lt;br/&gt;&lt;b&gt;状态&lt;/b&gt; 本次要看&lt;br/&gt;&lt;br/&gt;&lt;b&gt;看点&lt;/b&gt;&lt;br/&gt;约800米轻量环线：桃金娘山毛榉、树蕨和苔藓林下；清晨游客较少。&lt;br/&gt;&lt;br/&gt;&lt;b&gt;天气&lt;/b&gt;&lt;br/&gt;**天气（长年气候参考，非逐日预报）：**阿波罗湾／大奥特韦约6—17°C，沉船海岸约8—17°C，墨尔本约9—20°C；海岸强风、急雨和海雾变化快。&lt;br/&gt;&lt;br/&gt;&lt;b&gt;停留时长&lt;/b&gt; 约1小时&lt;br/&gt;&lt;br/&gt;&lt;b&gt;交通&lt;/b&gt; 驾车约17公里自阿波罗湾&lt;br/&gt;&lt;br/&gt;&lt;b&gt;备注&lt;/b&gt;&lt;br/&gt;雨后木栈道湿滑。&lt;br/&gt;&lt;br/&gt;&lt;b&gt;英文／检索名&lt;/b&gt; Maits Rest Rainforest Walk, Great Otway National Park VIC&lt;br/&gt;&lt;br/&gt;&lt;b&gt;坐标来源&lt;/b&gt; known</description>
        <Point>
          <coordinates>143.555,-38.755,0</coordinates>
        </Point>
      </Placemark>
      <Placemark>
        <name>D12-2 吉布森阶梯</name>
        <styleUrl>#sty_d1213</styleUrl>
        <description>&lt;b&gt;日期&lt;/b&gt; 2026-10-05 · 第12天&lt;br/&gt;&lt;br/&gt;&lt;b&gt;当日序号&lt;/b&gt; 2&lt;br/&gt;&lt;br/&gt;&lt;b&gt;状态&lt;/b&gt; 本次要看&lt;br/&gt;&lt;br/&gt;&lt;b&gt;看点&lt;/b&gt;&lt;br/&gt;从海滩仰望高崖和Gog/Magog岩柱；尺度感与十二门徒主观景台不同。&lt;br/&gt;&lt;br/&gt;&lt;b&gt;天气&lt;/b&gt;&lt;br/&gt;**天气（长年气候参考，非逐日预报）：**阿波罗湾／大奥特韦约6—17°C，沉船海岸约8—17°C，墨尔本约9—20°C；海岸强风、急雨和海雾变化快。&lt;br/&gt;&lt;br/&gt;&lt;b&gt;停留时长&lt;/b&gt; 约45分钟&lt;br/&gt;&lt;br/&gt;&lt;b&gt;交通&lt;/b&gt; 驾车约70公里&lt;br/&gt;&lt;br/&gt;&lt;b&gt;备注&lt;/b&gt;&lt;br/&gt;受落石潮位大浪影响，关闭时绝不翻越闸门。&lt;br/&gt;&lt;br/&gt;&lt;b&gt;英文／检索名&lt;/b&gt; Gibson Steps, Great Ocean Road VIC&lt;br/&gt;&lt;br/&gt;&lt;b&gt;坐标来源&lt;/b&gt; known</description>
        <Point>
          <coordinates>143.1,-38.67,0</coordinates>
        </Point>
      </Placemark>
      <Placemark>
        <name>D12-3 十二门徒岩</name>
        <styleUrl>#sty_d1213</styleUrl>
        <description>&lt;b&gt;日期&lt;/b&gt; 2026-10-05 · 第12天&lt;br/&gt;&lt;br/&gt;&lt;b&gt;当日序号&lt;/b&gt; 3&lt;br/&gt;&lt;br/&gt;&lt;b&gt;状态&lt;/b&gt; 本次要看&lt;br/&gt;&lt;br/&gt;&lt;b&gt;看点&lt;/b&gt;&lt;br/&gt;石灰岩海岸海蚀洞—拱门—孤柱持续演化；中午前后仍可清楚观察海岸结构。&lt;br/&gt;&lt;br/&gt;&lt;b&gt;天气&lt;/b&gt;&lt;br/&gt;**天气（长年气候参考，非逐日预报）：**阿波罗湾／大奥特韦约6—17°C，沉船海岸约8—17°C，墨尔本约9—20°C；海岸强风、急雨和海雾变化快。&lt;br/&gt;&lt;br/&gt;&lt;b&gt;停留时长&lt;/b&gt; 约1小时&lt;br/&gt;&lt;br/&gt;&lt;b&gt;交通&lt;/b&gt; 驾车约2公里&lt;br/&gt;&lt;br/&gt;&lt;b&gt;备注&lt;/b&gt;&lt;br/&gt;免费无需预约。&lt;br/&gt;&lt;br/&gt;【愿望清单·景点／自然】&lt;br/&gt;海蚀洞—拱门—独立岩柱持续演化；名称虽叫十二门徒，形成与存留的岩柱数量并非固定 12。[官方建议日出或日落看颜色变化](https://www.visitvictoria.com/Regions/Great-Ocean-Road/see-and-do/Nature-and-wildlife/Beaches-and-coastlines/12-Apostles.aspx)。  &lt;br/&gt;**深度补充：**岩柱来自石灰岩海岸被浪蚀成洞穴、拱门再坍塌为孤柱；数量从来不是稳定的“十二”。日出与日落分别强调轮廓和金色岩面，风、海雾和雨会快速改变能见度。  &lt;br/&gt;**扩展阅读：**[景点／自然官方资料](https://www.visitvictoria.com/regions/great-ocean-road/see-and-do/nature-and-wildlife/beaches-and-coastlines/12-apostles)&lt;br/&gt;&lt;br/&gt;【愿望清单·人文】&lt;br/&gt;位于 Eastern Maar／Gadubanud cultural landscape。殖民旅游命名不应遮住传统土地与持续的海岸文化联系。  &lt;br/&gt;**深度补充：**旅游命名从“ Sow and Piglets”改为Twelve Apostles，显示品牌如何重塑地景；它位于Eastern Maar/Gadubanud文化景观，现代游客中心与步道更新也涉及Traditional Owner合作。  &lt;br/&gt;**扩展阅读：**[人文／历史延伸阅读](https://www.easternmaar.com.au/)&lt;br/&gt;&lt;br/&gt;【愿望清单·本次建议】&lt;br/&gt;10/5约10:45—11:45保留完整主观景台时间，是沉船海岸硬任务；随后只在不影响St Kilda第一场的前提下短停Loch Ard。  &lt;br/&gt;**已纳入本次行程**&lt;br/&gt;&lt;br/&gt;&lt;b&gt;英文／检索名&lt;/b&gt; Twelve Apostles, Great Ocean Road VIC&lt;br/&gt;&lt;br/&gt;&lt;b&gt;坐标来源&lt;/b&gt; known</description>
        <Point>
          <coordinates>143.1048,-38.6655,0</coordinates>
        </Point>
      </Placemark>
      <Placemark>
        <name>D12-4 洛克阿德峡谷</name>
        <styleUrl>#sty_d1213</styleUrl>
        <description>&lt;b&gt;日期&lt;/b&gt; 2026-10-05 · 第12天&lt;br/&gt;&lt;br/&gt;&lt;b&gt;当日序号&lt;/b&gt; 4&lt;br/&gt;&lt;br/&gt;&lt;b&gt;状态&lt;/b&gt; 本次要看&lt;br/&gt;&lt;br/&gt;&lt;b&gt;看点&lt;/b&gt;&lt;br/&gt;沉船海岸经典峡谷；愿望清单建议白天留1.5—2小时。&lt;br/&gt;&lt;br/&gt;&lt;b&gt;天气&lt;/b&gt;&lt;br/&gt;**天气（长年气候参考，非逐日预报）：**阿波罗湾／大奥特韦约6—17°C，沉船海岸约8—17°C，墨尔本约9—20°C；海岸强风、急雨和海雾变化快。&lt;br/&gt;&lt;br/&gt;&lt;b&gt;停留时长&lt;/b&gt; 可选短停约20分钟&lt;br/&gt;&lt;br/&gt;&lt;b&gt;交通&lt;/b&gt; 十二门徒岩附近&lt;br/&gt;&lt;br/&gt;&lt;b&gt;备注&lt;/b&gt;&lt;br/&gt;【可选】仅在14:15前能离开沉船海岸时短停；不得挤占 St Kilda 第一场硬截止。&lt;br/&gt;&lt;br/&gt;【愿望清单·景点／自然】&lt;br/&gt;石灰岩峡湾与步道以 1878 年 Loch Ard 号沉船命名；海况猛烈，不能下到封闭区域或跨护栏。  &lt;br/&gt;**深度补充：**狭窄峡口、垂直石灰岩壁和强浪展示海蚀洞—峡湾持续演化。不同支线通往主海湾、Razorback等视角，封闭会随侵蚀与施工变化，必须以现场为准。  &lt;br/&gt;**扩展阅读：**[景点／自然官方资料](https://www.visitvictoria.com/regions/great-ocean-road/see-and-do/nature-and-wildlife/beaches-and-coastlines/loch-ard-gorge)&lt;br/&gt;&lt;br/&gt;【愿望清单·人文】&lt;br/&gt;仅两名幸存者 Tom Pearce 与 Eva Carmichael 的故事成为 Shipwreck Coast 最常讲述的海难叙事；阅读现场牌示能让地貌不只是“拍照点”。  &lt;br/&gt;**深度补充：**1878年Loch Ard号沉船仅Tom Pearce与Eva Carmichael幸存，故事塑造“Shipwreck Coast”公共记忆。现场命名、纪念和浪漫化叙事值得与真实移民航运风险比较。  &lt;br/&gt;**扩展阅读：**[人文／历史延伸阅读](https://collections.museumsvictoria.com.au/articles/3731)&lt;br/&gt;&lt;br/&gt;【愿望清单·本次建议】&lt;br/&gt;10/5十二门徒后仅作约20分钟可选短停；任何延误都取消，确保14:15—14:30前离开沉船海岸赶St Kilda。  &lt;br/&gt;**可选纳入本次行程**&lt;br/&gt;&lt;br/&gt;&lt;b&gt;英文／检索名&lt;/b&gt; Loch Ard Gorge, Port Campbell VIC&lt;br/&gt;&lt;br/&gt;&lt;b&gt;坐标来源&lt;/b&gt; known</description>
        <Point>
          <coordinates>143.07,-38.647,0</coordinates>
        </Point>
      </Placemark>
      <Placemark>
        <name>D12-5 坎贝尔港</name>
        <styleUrl>#sty_d1213</styleUrl>
        <description>&lt;b&gt;日期&lt;/b&gt; 2026-10-05 · 第12天&lt;br/&gt;&lt;br/&gt;&lt;b&gt;当日序号&lt;/b&gt; 5&lt;br/&gt;&lt;br/&gt;&lt;b&gt;状态&lt;/b&gt; 本次要看&lt;br/&gt;&lt;br/&gt;&lt;b&gt;看点&lt;/b&gt;&lt;br/&gt;受保护的小海湾、渔港和沉船海岸补给中心；午餐和恢复体力。&lt;br/&gt;&lt;br/&gt;&lt;b&gt;天气&lt;/b&gt;&lt;br/&gt;**天气（长年气候参考，非逐日预报）：**阿波罗湾／大奥特韦约6—17°C，沉船海岸约8—17°C，墨尔本约9—20°C；海岸强风、急雨和海雾变化快。&lt;br/&gt;&lt;br/&gt;&lt;b&gt;停留时长&lt;/b&gt; 约55分钟&lt;br/&gt;&lt;br/&gt;&lt;b&gt;交通&lt;/b&gt; 驾车约12公里&lt;br/&gt;&lt;br/&gt;&lt;b&gt;备注&lt;/b&gt;&lt;br/&gt;午餐加油短暂休整。&lt;br/&gt;&lt;br/&gt;【愿望清单·景点／自然】&lt;br/&gt;适合作为看日落与日出的住宿基地，餐饮和补给选择有限，旺季需提前订。  &lt;br/&gt;**深度补充：**镇位于受保护的小海湾，是沉船海岸少数可集中补给、住宿和步行的基地。周边悬崖暴露、天气多变，住一晚能把十二门徒日落和次日日出拆开，避免夜驾。  &lt;br/&gt;**扩展阅读：**[景点／自然官方资料](https://www.visitvictoria.com/regions/great-ocean-road/destinations/port-campbell)&lt;br/&gt;&lt;br/&gt;【愿望清单·人文】&lt;br/&gt;港镇服务于渔业、道路旅游与国家公园；它的价值是把大洋路从赶路变成慢看，而不只是“离十二门徒最近”。  &lt;br/&gt;**深度补充：**渔业、道路旅游与国家公园服务共同塑造小镇。它也说明大洋路从战间期交通工程转为全球旅游线路后，地方住房、季节就业与环境承载面临的压力。  &lt;br/&gt;**扩展阅读：**[人文／历史延伸阅读](https://www.corangamite.vic.gov.au/Places-and-Events/Towns/Port-Campbell)&lt;br/&gt;&lt;br/&gt;【愿望清单·本次建议】&lt;br/&gt;10/4 住宿；正规住宿／营地。  &lt;br/&gt;**已纳入本次行程**&lt;br/&gt;&lt;br/&gt;&lt;b&gt;英文／检索名&lt;/b&gt; Port Campbell, Victoria&lt;br/&gt;&lt;br/&gt;&lt;b&gt;坐标来源&lt;/b&gt; known</description>
        <Point>
          <coordinates>142.995,-38.619,0</coordinates>
        </Point>
      </Placemark>
      <Placemark>
        <name>D12-6 圣基尔达企鹅观赏平台</name>
        <styleUrl>#sty_d1213</styleUrl>
        <description>&lt;b&gt;日期&lt;/b&gt; 2026-10-05 · 第12天&lt;br/&gt;&lt;br/&gt;&lt;b&gt;当日序号&lt;/b&gt; 6&lt;br/&gt;&lt;br/&gt;&lt;b&gt;状态&lt;/b&gt; 本次要看&lt;br/&gt;&lt;br/&gt;&lt;b&gt;看点&lt;/b&gt;&lt;br/&gt;St Kilda Pier／Breakwater 高架平台观看小蓝企鹅归巢；免费但必须持票。&lt;br/&gt;&lt;br/&gt;&lt;b&gt;天气&lt;/b&gt;&lt;br/&gt;**天气（长年气候参考，非逐日预报）：**阿波罗湾／大奥特韦约6—17°C，沉船海岸约8—17°C，墨尔本约9—20°C；海岸强风、急雨和海雾变化快。&lt;br/&gt;&lt;br/&gt;&lt;b&gt;停留时长&lt;/b&gt; 第一场约19:57起（票面为准）&lt;br/&gt;&lt;br/&gt;&lt;b&gt;交通&lt;/b&gt; 从沉船海岸直接驶往 St Kilda，不先回酒店&lt;br/&gt;&lt;br/&gt;&lt;b&gt;备注&lt;/b&gt;&lt;br/&gt;目标第一场；周二10:00开放未来一周票，热门易满。停车有限，平台入口在码头内约450米。&lt;br/&gt;&lt;br/&gt;【愿望清单·景点／自然】&lt;br/&gt;St Kilda Pier／Breakwater高架平台可观看野生小蓝企鹅日落后归巢；免费但必须持票，需遵守低光、安静及现场管理规则。  &lt;br/&gt;**深度补充：**2026-10-05墨尔本日落约19:27 AEDT，第一场暂按日落后约30分钟估算；企鹅出现时间和数量受海况、季节与个体活动影响，不保证。  &lt;br/&gt;**扩展阅读：**[官方资料](https://www.penguins.org.au/)&lt;br/&gt;&lt;br/&gt;【愿望清单·人文】&lt;br/&gt;市区海滨企鹅群体现城市基础设施、游客管理与野生动物栖息地保护之间的平衡；应只在指定高架平台观看，不自行进入Breakwater。  &lt;br/&gt;**扩展阅读：**[官方资料](https://www.penguins.org.au/)&lt;br/&gt;&lt;br/&gt;【愿望清单·本次建议】&lt;br/&gt;10/5已纳入：14:15—14:30前离开沉船海岸，直接到St Kilda，不先回酒店；目标抢第一场，观赏后再去West Melbourne住宿。  &lt;br/&gt;**已纳入本次行程**&lt;br/&gt;&lt;br/&gt;&lt;b&gt;英文／检索名&lt;/b&gt; St Kilda Pier Penguin Viewing Platform, Melbourne VIC&lt;br/&gt;&lt;br/&gt;&lt;b&gt;坐标来源&lt;/b&gt; known</description>
        <Point>
          <coordinates>144.9731,-37.8648,0</coordinates>
        </Point>
      </Placemark>
      <Placemark>
        <name>D12-7 墨尔本</name>
        <styleUrl>#sty_d1213</styleUrl>
        <description>&lt;b&gt;日期&lt;/b&gt; 2026-10-05 · 第12天&lt;br/&gt;&lt;br/&gt;&lt;b&gt;当日序号&lt;/b&gt; 7&lt;br/&gt;&lt;br/&gt;&lt;b&gt;状态&lt;/b&gt; 本次要看&lt;br/&gt;&lt;br/&gt;&lt;b&gt;看点&lt;/b&gt;&lt;br/&gt;入住West Melbourne／Southern Cross附近酒店，整理行李保证次日国际航班。&lt;br/&gt;&lt;br/&gt;&lt;b&gt;天气&lt;/b&gt;&lt;br/&gt;**天气（长年气候参考，非逐日预报）：**阿波罗湾／大奥特韦约6—17°C，沉船海岸约8—17°C，墨尔本约9—20°C；海岸强风、急雨和海雾变化快。&lt;br/&gt;&lt;br/&gt;&lt;b&gt;停留时长&lt;/b&gt; 过夜&lt;br/&gt;&lt;br/&gt;&lt;b&gt;交通&lt;/b&gt; 驾车约230公里&lt;br/&gt;&lt;br/&gt;&lt;b&gt;备注&lt;/b&gt;&lt;br/&gt;本晚不车宿。&lt;br/&gt;&lt;br/&gt;&lt;b&gt;英文／检索名&lt;/b&gt; Southern Cross Station, Melbourne VIC&lt;br/&gt;&lt;br/&gt;&lt;b&gt;坐标来源&lt;/b&gt; known</description>
        <Point>
          <coordinates>144.9525,-37.8183,0</coordinates>
        </Point>
      </Placemark>
      <Placemark>
        <name>D13-1 维多利亚女王市场</name>
        <styleUrl>#sty_d1213</styleUrl>
        <description>&lt;b&gt;日期&lt;/b&gt; 2026-10-06 · 第13天&lt;br/&gt;&lt;br/&gt;&lt;b&gt;当日序号&lt;/b&gt; 1&lt;br/&gt;&lt;br/&gt;&lt;b&gt;状态&lt;/b&gt; 本次要看&lt;br/&gt;&lt;br/&gt;&lt;b&gt;看点&lt;/b&gt;&lt;br/&gt;1878年延续至今的工作型市场、鲜食大厅、移民饮食和露天棚架；周二07:00—08:00适合早餐并看生鲜摊开市。&lt;br/&gt;&lt;br/&gt;&lt;b&gt;天气&lt;/b&gt;&lt;br/&gt;**天气（长年气候参考，非逐日预报）：**墨尔本中央商务区（Melbourne CBD）／Queen Victoria Market（维多利亚女王市场）／墨尔本机场（Melbourne Airport）通常约9—20°C，清晨偏凉且可能阵雨；香港国际机场（Hong Kong International Airport）10月上旬通常约24—30°C，仍可能受强降雨或热带气旋影响；北京（Beijing）约9—22°C，晴燥且昼夜温差大。随身保留薄外套；出发前24小时重点查香港热带气旋信号，因为60分钟转机几乎没有吸收延误的余量。[BOM墨尔本气候](https://www.bom.gov.au/climate/averages/tables/cw_086282.shtml)｜[香港天文台机场气候](https://www.hko.gov.hk/en/aviat/amt/monthlymean.htm)。&lt;br/&gt;&lt;br/&gt;&lt;b&gt;停留时长&lt;/b&gt; 约1小时&lt;br/&gt;&lt;br/&gt;&lt;b&gt;交通&lt;/b&gt; 酒店步行约0.5—2公里&lt;br/&gt;&lt;br/&gt;&lt;b&gt;备注&lt;/b&gt;&lt;br/&gt;周二06:00—15:00；specialty shopping 09:00才开。当天不去远郊。&lt;br/&gt;&lt;br/&gt;【愿望清单·景点／自然】&lt;br/&gt;大型传统市场，开放日和营业时段分区不同；不是每天所有摊位都开。  &lt;br/&gt;**深度补充：**市场不同棚区经营鲜肉、海产、蔬果、熟食和日用品；开放日与各区时间不同，周二清晨最能看到工作型市场而非纯游客场景。改造工程会造成摊位临时迁移。  &lt;br/&gt;**扩展阅读：**[景点／自然官方资料](https://qvm.com.au/visit-us/)&lt;br/&gt;&lt;br/&gt;【愿望清单·人文】&lt;br/&gt;1878 年开业，部分市场建在旧 Melbourne General Cemetery 地段之上，市场更新也牵涉遗产、墓地和城市公共空间讨论。  &lt;br/&gt;**深度补充：**1878年开业，部分市场位于旧Melbourne General Cemetery之上，更新计划因此涉及遗产、墓地与公共空间争议。市场也记录多代移民如何通过食物进入城市生活。  &lt;br/&gt;**扩展阅读：**[人文／历史延伸阅读](https://qvm.com.au/about/)&lt;br/&gt;&lt;br/&gt;【愿望清单·本次建议】&lt;br/&gt;只有10/6营业且时间充足才短逛；不影响机场出发。  &lt;br/&gt;**已纳入本次行程**&lt;br/&gt;&lt;br/&gt;&lt;b&gt;英文／检索名&lt;/b&gt; Queen Victoria Market, Melbourne VIC&lt;br/&gt;&lt;br/&gt;&lt;b&gt;坐标来源&lt;/b&gt; known</description>
        <Point>
          <coordinates>144.9568,-37.8076,0</coordinates>
        </Point>
      </Placemark>
      <Placemark>
        <name>D12 当日路线</name>
        <styleUrl>#sty_d1213_line</styleUrl>
        <description>第12天按顺序串联（示意）</description>
        <LineString>
          <tessellate>1</tessellate>
          <coordinates>143.555,-38.755,0 143.1,-38.67,0 143.1048,-38.6655,0 142.995,-38.619,0 144.9731,-37.8648,0 144.9525,-37.8183,0</coordinates>
        </LineString>
      </Placemark>
      <description>点位数：8</description>
    </Folder>
  </Document>
</kml>