<?xml version='1.0' encoding='utf-8'?>
<kml xmlns="http://www.opengis.net/kml/2.2">
  <Document>
    <name>D5–6 9/28–29 霍巴特／玛丽亚岛自助往返</name>
    <Style id="sty_d56">
      <IconStyle>
        <scale>1.0</scale>
        <Icon>
          <href>http://maps.google.com/mapfiles/kml/paddle/grn-circle.png</href>
        </Icon>
      </IconStyle>
    </Style>
    <Style id="sty_d56_line">
      <LineStyle>
        <color>7f00ff00</color>
        <width>3</width>
      </LineStyle>
    </Style>
    <Style id="sty_confirmed_lodging">
      <IconStyle>
        <scale>1.0</scale>
        <Icon>
          <href>http://maps.google.com/mapfiles/kml/pal2/icon10.png</href>
        </Icon>
      </IconStyle>
    </Style>
    <Folder>
      <name>D5–6 9/28–29 霍巴特／玛丽亚岛自助往返</name>
      <Placemark>
        <name>D5 霍巴特</name>
        <styleUrl>#sty_d56</styleUrl>
        <description>&lt;b&gt;日期&lt;/b&gt; 2026-09-28 · 第5天&lt;br/&gt;&lt;br/&gt;&lt;b&gt;当日序号&lt;/b&gt; 0&lt;br/&gt;&lt;br/&gt;&lt;b&gt;状态&lt;/b&gt; 本次要看&lt;br/&gt;&lt;br/&gt;&lt;b&gt;看点&lt;/b&gt;&lt;br/&gt;Waterfront、Salamanca、Battery Point 与 kunanyi / Mount Wellington 构成城市核心；MONA 若参观需单独半天。  &lt;br/&gt;**深度补充：**Derwent／timtumili minanya河口、kunanyi高地、海港和强风共同决定城市景观。Waterfront、Salamanca与Battery Point适合步行，kunanyi则可能在同一天经历雨、雪、低云和强风。  &lt;br/&gt;**扩展阅读：**[景点／自然官方资料](https://www.discovertasmania.com.au/regions/hobart-and-south/hobart/)&lt;br/&gt;&lt;br/&gt;&lt;b&gt;天气&lt;/b&gt;&lt;br/&gt;**天气（长年气候参考，非逐日预报）：**珀斯机场清晨约10—21°C；霍巴特机场／霍巴特CBD约6—15°C，傍晚常见阵雨、海风和明显风寒。落地后换长裤、保暖中层及防风防水外层。[BOM霍巴特气候](https://www.bom.gov.au/climate/averages/tables/cw_094029.shtml)。&lt;br/&gt;&lt;br/&gt;&lt;b&gt;停留时长&lt;/b&gt; 9月28日—10月1日&lt;br/&gt;&lt;br/&gt;&lt;b&gt;交通&lt;/b&gt; 机场到CBD；两天参加Hobart往返当日团&lt;br/&gt;&lt;br/&gt;&lt;b&gt;备注&lt;/b&gt;&lt;br/&gt;Iron Creek Bay Estate连住三晚；两天均需自驾约30—40分钟往返霍巴特集合区域。Quest Savoy订单也已保留，待最终决定取消哪一笔。市区活动只作旅行团前后补给，不硬塞远程景点。&lt;br/&gt;&lt;br/&gt;【人文】&lt;br/&gt;nipaluna 位于 Muwinina Country；砂岩仓库、南极科研与港口史并存。kunanyi 是重要的 Aboriginal 地名。城市的文化名片也包括 MONA 对当代艺术与旅游形象的重塑。  &lt;br/&gt;**深度补充：**nipaluna位于Muwinina Country。砂岩仓库、捕鲸与航运、南极科研、MONA及环境政治构成多重城市性格；双重命名让原住民语言重新进入公共空间。  &lt;br/&gt;**扩展阅读：**[人文／历史延伸阅读](https://tacinc.com.au/tasmanian-aboriginal-place-names/)&lt;br/&gt;&lt;br/&gt;【本次建议】&lt;br/&gt;9/28 霍巴特机场落地取车后**直驱亚瑟港（Port Arthur）住宿**，不安排 Rosny Hill／City Walk／连住霍巴特；市区仅作跨州过境。航班严重延误时才启用霍巴特机场／索雷尔（Sorell）兜底住宿。  &lt;br/&gt;**已纳入本次行程（过境）**&lt;br/&gt;&lt;br/&gt;&lt;b&gt;英文／检索名&lt;/b&gt; Hobart, Tasmania, Australia&lt;br/&gt;&lt;br/&gt;&lt;b&gt;坐标来源&lt;/b&gt; known</description>
        <Point>
          <coordinates>147.3272,-42.8821,0</coordinates>
        </Point>
      </Placemark>
      <Placemark>
        <name>D5-1 霍巴特机场</name>
        <styleUrl>#sty_d56</styleUrl>
        <description>&lt;b&gt;日期&lt;/b&gt; 2026-09-28 · 第5天&lt;br/&gt;&lt;br/&gt;&lt;b&gt;当日序号&lt;/b&gt; 1&lt;br/&gt;&lt;br/&gt;&lt;b&gt;状态&lt;/b&gt; 本次要看&lt;br/&gt;&lt;br/&gt;&lt;b&gt;看点&lt;/b&gt;&lt;br/&gt;跨州航班落地；取行李后前往霍巴特CBD。&lt;br/&gt;&lt;br/&gt;&lt;b&gt;天气&lt;/b&gt;&lt;br/&gt;**天气（长年气候参考，非逐日预报）：**珀斯机场清晨约10—21°C；霍巴特机场／霍巴特CBD约6—15°C，傍晚常见阵雨、海风和明显风寒。落地后换长裤、保暖中层及防风防水外层。[BOM霍巴特气候](https://www.bom.gov.au/climate/averages/tables/cw_094029.shtml)。&lt;br/&gt;&lt;br/&gt;&lt;b&gt;停留时长&lt;/b&gt; 约1小时&lt;br/&gt;&lt;br/&gt;&lt;b&gt;交通&lt;/b&gt; 维珍澳洲 VA594 珀斯→霍巴特&lt;br/&gt;&lt;br/&gt;&lt;b&gt;备注&lt;/b&gt;&lt;br/&gt;09:50—16:00飞行；落地取车后前往Iron Creek Bay Estate。&lt;br/&gt;&lt;br/&gt;&lt;b&gt;英文／检索名&lt;/b&gt; Hobart Airport, Tasmania&lt;br/&gt;&lt;br/&gt;&lt;b&gt;坐标来源&lt;/b&gt; known</description>
        <Point>
          <coordinates>147.5103,-42.8361,0</coordinates>
        </Point>
      </Placemark>
      <Placemark>
        <name>D5-2 Iron Creek Bay Es…</name>
        <styleUrl>#sty_confirmed_lodging</styleUrl>
        <description>&lt;b&gt;日期&lt;/b&gt; 2026-09-28 · 第5天&lt;br/&gt;&lt;br/&gt;&lt;b&gt;当日序号&lt;/b&gt; 2&lt;br/&gt;&lt;br/&gt;&lt;b&gt;状态&lt;/b&gt; 本次要看&lt;br/&gt;&lt;br/&gt;&lt;b&gt;看点&lt;/b&gt;&lt;br/&gt;当前计划入住的已订住宿；位于Sorell，连续三晚自驾往返霍巴特及两个当日团集合点。&lt;br/&gt;&lt;br/&gt;&lt;b&gt;天气&lt;/b&gt;&lt;br/&gt;**天气（长年气候参考，非逐日预报）：**珀斯机场清晨约10—21°C；霍巴特机场／霍巴特CBD约6—15°C，傍晚常见阵雨、海风和明显风寒。落地后换长裤、保暖中层及防风防水外层。[BOM霍巴特气候](https://www.bom.gov.au/climate/averages/tables/cw_094029.shtml)。&lt;br/&gt;&lt;br/&gt;&lt;b&gt;停留时长&lt;/b&gt; 9月28日—10月1日连住三晚&lt;br/&gt;&lt;br/&gt;&lt;b&gt;交通&lt;/b&gt; 霍巴特机场约15分钟车程；霍巴特CBD约30分钟车程&lt;br/&gt;&lt;br/&gt;&lt;b&gt;备注&lt;/b&gt;&lt;br/&gt;地址394 Arthur Highway；Quest Savoy订单也已保留，最终取消哪一笔待决定。&lt;br/&gt;&lt;br/&gt;&lt;b&gt;英文／检索名&lt;/b&gt; Iron Creek Bay Estate, 394 Arthur Highway, Sorell TAS 7172&lt;br/&gt;&lt;br/&gt;&lt;b&gt;坐标来源&lt;/b&gt; official_address</description>
        <Point>
          <coordinates>147.5855,-42.7844,0</coordinates>
        </Point>
      </Placemark>
      <Placemark>
        <name>D5-3 Quest Savoy</name>
        <styleUrl>#sty_confirmed_lodging</styleUrl>
        <description>&lt;b&gt;日期&lt;/b&gt; 2026-09-28 · 第5天&lt;br/&gt;&lt;br/&gt;&lt;b&gt;当日序号&lt;/b&gt; 3&lt;br/&gt;&lt;br/&gt;&lt;b&gt;状态&lt;/b&gt; 本次要看&lt;br/&gt;&lt;br/&gt;&lt;b&gt;看点&lt;/b&gt;&lt;br/&gt;已订但暂不作为当前入住方案；保留地图标记，待最终决定是否取消。&lt;br/&gt;&lt;br/&gt;&lt;b&gt;天气&lt;/b&gt;&lt;br/&gt;**天气（长年气候参考，非逐日预报）：**珀斯机场清晨约10—21°C；霍巴特机场／霍巴特CBD约6—15°C，傍晚常见阵雨、海风和明显风寒。落地后换长裤、保暖中层及防风防水外层。[BOM霍巴特气候](https://www.bom.gov.au/climate/averages/tables/cw_094029.shtml)。&lt;br/&gt;&lt;br/&gt;&lt;b&gt;停留时长&lt;/b&gt; 备选订单：9月28日—10月1日&lt;br/&gt;&lt;br/&gt;&lt;b&gt;交通&lt;/b&gt; 位于霍巴特CBD，步行可达两个集合点&lt;br/&gt;&lt;br/&gt;&lt;b&gt;备注&lt;/b&gt;&lt;br/&gt;地址38 Elizabeth Street；与Iron Creek Bay Estate两笔订单均暂时保留。&lt;br/&gt;&lt;br/&gt;&lt;b&gt;英文／检索名&lt;/b&gt; Quest Savoy, 38 Elizabeth Street, Hobart TAS 7000&lt;br/&gt;&lt;br/&gt;&lt;b&gt;坐标来源&lt;/b&gt; google_maps</description>
        <Point>
          <coordinates>147.328943,-42.88223,0</coordinates>
        </Point>
      </Placemark>
      <Placemark>
        <name>D6-1 Triabunna Wharf</name>
        <styleUrl>#sty_d56</styleUrl>
        <description>&lt;b&gt;日期&lt;/b&gt; 2026-09-29 · 第6天&lt;br/&gt;&lt;br/&gt;&lt;b&gt;当日序号&lt;/b&gt; 1&lt;br/&gt;&lt;br/&gt;&lt;b&gt;状态&lt;/b&gt; 本次要看&lt;br/&gt;&lt;br/&gt;&lt;b&gt;看点&lt;/b&gt;&lt;br/&gt;Maria Island Same Day Return登船点；08:00签到、08:30开船。&lt;br/&gt;&lt;br/&gt;&lt;b&gt;天气&lt;/b&gt;&lt;br/&gt;**天气（长年气候参考，非逐日预报）：**霍巴特／特里阿布纳／Maria Island约7—17°C，海上和岛屿开阔处体感更低，阵雨、强风和船班调整均可能发生。带防水外壳、保暖层、防滑鞋、防晒和足量饮水。&lt;br/&gt;&lt;br/&gt;&lt;b&gt;停留时长&lt;/b&gt; 07:30前到达／08:00签到&lt;br/&gt;&lt;br/&gt;&lt;b&gt;交通&lt;/b&gt; 从Iron Creek Bay Estate自驾约70—85公里&lt;br/&gt;&lt;br/&gt;&lt;b&gt;备注&lt;/b&gt;&lt;br/&gt;【核销】Reference #1441927。导航：https://www.google.com/maps/search/?api=1&amp;amp;query=Triabunna+Wharf+Tasmania。预留停车与签到时间。&lt;br/&gt;&lt;br/&gt;&lt;b&gt;英文／检索名&lt;/b&gt; Triabunna Wharf, Triabunna TAS&lt;br/&gt;&lt;br/&gt;&lt;b&gt;坐标来源&lt;/b&gt; google_maps</description>
        <Point>
          <coordinates>147.9135,-42.5089,0</coordinates>
        </Point>
      </Placemark>
      <Placemark>
        <name>D6-2 玛丽亚岛</name>
        <styleUrl>#sty_d56</styleUrl>
        <description>&lt;b&gt;日期&lt;/b&gt; 2026-09-29 · 第6天&lt;br/&gt;&lt;br/&gt;&lt;b&gt;当日序号&lt;/b&gt; 2&lt;br/&gt;&lt;br/&gt;&lt;b&gt;状态&lt;/b&gt; 本次要看&lt;br/&gt;&lt;br/&gt;&lt;b&gt;看点&lt;/b&gt;&lt;br/&gt;Darlington草地观察袋熊、袋鼠和斑胸草雁；按潮汐走彩绘崖或化石崖二选一。&lt;br/&gt;&lt;br/&gt;&lt;b&gt;天气&lt;/b&gt;&lt;br/&gt;**天气（长年气候参考，非逐日预报）：**霍巴特／特里阿布纳／Maria Island约7—17°C，海上和岛屿开阔处体感更低，阵雨、强风和船班调整均可能发生。带防水外壳、保暖层、防滑鞋、防晒和足量饮水。&lt;br/&gt;&lt;br/&gt;&lt;b&gt;停留时长&lt;/b&gt; 08:30登岛—14:00集合／14:30返程&lt;br/&gt;&lt;br/&gt;&lt;b&gt;交通&lt;/b&gt; Encounter Maria Island渡轮（Same Day Return）&lt;br/&gt;&lt;br/&gt;&lt;b&gt;备注&lt;/b&gt;&lt;br/&gt;【核销】Reference #1441927｜2026-09-29｜2 Adults + Holiday Pass Per Vehicle｜AUD 216.35。回程Darlington 14:00集合／14:30开船。自带午餐饮水；岛上无商店。&lt;br/&gt;&lt;br/&gt;【愿望清单·景点／自然】&lt;br/&gt;[岛上只有渡轮可达且游客不能开车上岛](https://parks.tas.gov.au/explore-our-parks/maria-island-national-park)；有袋熊、袋鼠、Painted Cliffs 与 Fossil Cliffs。  &lt;br/&gt;**深度补充：**岛上无游客汽车，Darlington草地、Fossil Cliffs、Painted Cliffs和开放林地形成步行／骑行尺度。袋熊白天也常见，但清晨、傍晚更活跃；Painted Cliffs接近条件受潮汐控制。  &lt;br/&gt;**扩展阅读：**[景点／自然官方资料](https://parks.tas.gov.au/explore-our-parks/maria-island-national-park)&lt;br/&gt;&lt;br/&gt;【愿望清单·人文】&lt;br/&gt;Darlington Probation Station 属于世界遗产流放遗址；岛屿同时有 Tyreddeme Aboriginal history、殖民工业尝试与保育迁入物种史。袋熊很亲近人并不代表可以摸。  &lt;br/&gt;**深度补充：**Tyreddeme people的Country、Darlington流放站、后来的水泥和丝绸等工业实验、以及袋獾保险种群迁入，共同形成复杂历史。世界遗产建筑与当代保育都不能只做动物自拍背景。  &lt;br/&gt;**扩展阅读：**[人文／历史延伸阅读](https://encountermaria.com.au/history/)&lt;br/&gt;&lt;br/&gt;【愿望清单·本次建议】&lt;br/&gt;9/30已纳入主行程：从特里阿布纳（Triabunna）乘08:30官方渡轮上岛、16:15返回；以Darlington（达灵顿）动物观察为核心，并按潮汐在Painted Cliffs（彩绘崖）与Fossil Cliffs（化石崖）中选择一条轻量路线。  &lt;br/&gt;**已纳入本次行程**&lt;br/&gt;&lt;br/&gt;&lt;b&gt;英文／检索名&lt;/b&gt; Darlington, Maria Island Tasmania&lt;br/&gt;&lt;br/&gt;&lt;b&gt;坐标来源&lt;/b&gt; known</description>
        <Point>
          <coordinates>147.852,-43.1485,0</coordinates>
        </Point>
      </Placemark>
      <description>点位数：6</description>
    </Folder>
  </Document>
</kml>