<?xml version='1.0' encoding='utf-8'?>
<kml xmlns="http://www.opengis.net/kml/2.2">
  <Document>
    <name>D5–6 9/28–29 霍巴特／塔斯曼半岛</name>
    <Style id="sty_d56">
      <IconStyle>
        <scale>1.0</scale>
        <Icon>
          <href>http://maps.google.com/mapfiles/kml/paddle/grn-circle.png</href>
        </Icon>
      </IconStyle>
    </Style>
    <Style id="sty_d56_line">
      <LineStyle>
        <color>7f00ff00</color>
        <width>3</width>
      </LineStyle>
    </Style>
    <Folder>
      <name>D5–6 9/28–29 霍巴特／塔斯曼半岛</name>
      <Placemark>
        <name>跳过 霍巴特</name>
        <styleUrl>#sty_d56</styleUrl>
        <description>&lt;b&gt;日期&lt;/b&gt; 2026-09-28 · 第5天&lt;br/&gt;&lt;br/&gt;&lt;b&gt;当日序号&lt;/b&gt; 0&lt;br/&gt;&lt;br/&gt;&lt;b&gt;状态&lt;/b&gt; 本次不看&lt;br/&gt;&lt;br/&gt;&lt;b&gt;看点&lt;/b&gt;&lt;br/&gt;过境取车转场；不安排 City Walk／Rosny Hill／连住霍巴特。&lt;br/&gt;&lt;br/&gt;&lt;b&gt;天气&lt;/b&gt;&lt;br/&gt;**天气（长年气候参考，非逐日预报）：**珀斯机场（Perth Airport）清晨通常约10—21°C；霍巴特机场（Hobart Airport）／亚瑟港（Port Arthur）约6—15°C，傍晚常见阵雨、海风和明显风寒。落地后换长裤、保暖中层及防风防水外层；出发前7天再看BOM逐日预报。[BOM霍巴特气候](https://www.bom.gov.au/climate/averages/tables/cw_094029.shtml)。&lt;br/&gt;&lt;br/&gt;&lt;b&gt;停留时长&lt;/b&gt; 过境&lt;br/&gt;&lt;br/&gt;&lt;b&gt;交通&lt;/b&gt; 机场落地后直驱亚瑟港&lt;br/&gt;&lt;br/&gt;&lt;b&gt;备注&lt;/b&gt;&lt;br/&gt;仅作跨州落地与取车转场；不安排落地 City Walk／Rosny Hill／连住霍巴特。&lt;br/&gt;&lt;br/&gt;【人文】&lt;br/&gt;nipaluna 位于 Muwinina Country；砂岩仓库、南极科研与港口史并存。kunanyi 是重要的 Aboriginal 地名。城市的文化名片也包括 MONA 对当代艺术与旅游形象的重塑。  &lt;br/&gt;**深度补充：**nipaluna位于Muwinina Country。砂岩仓库、捕鲸与航运、南极科研、MONA及环境政治构成多重城市性格；双重命名让原住民语言重新进入公共空间。  &lt;br/&gt;**扩展阅读：**[人文／历史延伸阅读](https://tacinc.com.au/tasmanian-aboriginal-place-names/)&lt;br/&gt;&lt;br/&gt;【本次建议】&lt;br/&gt;9/28抵达后只安排Rosny Hill Nature Recreation Area（罗斯尼山自然休闲区）日落；9/28—9/29连住霍巴特，作为两次自然一日团的接送基地。  &lt;br/&gt;**已纳入本次行程**&lt;br/&gt;&lt;br/&gt;&lt;b&gt;英文／检索名&lt;/b&gt; Hobart, Tasmania, Australia&lt;br/&gt;&lt;br/&gt;&lt;b&gt;坐标来源&lt;/b&gt; known</description>
        <Point>
          <coordinates>147.3272,-42.8821,0</coordinates>
        </Point>
      </Placemark>
      <Placemark>
        <name>D5-1 霍巴特机场</name>
        <styleUrl>#sty_d56</styleUrl>
        <description>&lt;b&gt;日期&lt;/b&gt; 2026-09-28 · 第5天&lt;br/&gt;&lt;br/&gt;&lt;b&gt;当日序号&lt;/b&gt; 1&lt;br/&gt;&lt;br/&gt;&lt;b&gt;状态&lt;/b&gt; 本次要看&lt;br/&gt;&lt;br/&gt;&lt;b&gt;看点&lt;/b&gt;&lt;br/&gt;跨州航班落地；取行李和第二辆租车。&lt;br/&gt;&lt;br/&gt;&lt;b&gt;天气&lt;/b&gt;&lt;br/&gt;**天气（长年气候参考，非逐日预报）：**珀斯机场（Perth Airport）清晨通常约10—21°C；霍巴特机场（Hobart Airport）／亚瑟港（Port Arthur）约6—15°C，傍晚常见阵雨、海风和明显风寒。落地后换长裤、保暖中层及防风防水外层；出发前7天再看BOM逐日预报。[BOM霍巴特气候](https://www.bom.gov.au/climate/averages/tables/cw_094029.shtml)。&lt;br/&gt;&lt;br/&gt;&lt;b&gt;停留时长&lt;/b&gt; 约1小时&lt;br/&gt;&lt;br/&gt;&lt;b&gt;交通&lt;/b&gt; 维珍澳洲 VA594 珀斯→霍巴特&lt;br/&gt;&lt;br/&gt;&lt;b&gt;备注&lt;/b&gt;&lt;br/&gt;09:50—16:00飞行；落地后不安排City Walk，直接转场亚瑟港。&lt;br/&gt;&lt;br/&gt;&lt;b&gt;英文／检索名&lt;/b&gt; Hobart Airport, Tasmania&lt;br/&gt;&lt;br/&gt;&lt;b&gt;坐标来源&lt;/b&gt; known</description>
        <Point>
          <coordinates>147.5103,-42.8361,0</coordinates>
        </Point>
      </Placemark>
      <Placemark>
        <name>D5-2 亚瑟港</name>
        <styleUrl>#sty_d56</styleUrl>
        <description>&lt;b&gt;日期&lt;/b&gt; 2026-09-28 · 第5天&lt;br/&gt;&lt;br/&gt;&lt;b&gt;当日序号&lt;/b&gt; 2&lt;br/&gt;&lt;br/&gt;&lt;b&gt;状态&lt;/b&gt; 本次要看&lt;br/&gt;&lt;br/&gt;&lt;b&gt;看点&lt;/b&gt;&lt;br/&gt;当晚直接住亚瑟港，把次日约100公里赶路提前消化，为海上巡游保留睡眠。&lt;br/&gt;&lt;br/&gt;&lt;b&gt;天气&lt;/b&gt;&lt;br/&gt;**天气（长年气候参考，非逐日预报）：**珀斯机场（Perth Airport）清晨通常约10—21°C；霍巴特机场（Hobart Airport）／亚瑟港（Port Arthur）约6—15°C，傍晚常见阵雨、海风和明显风寒。落地后换长裤、保暖中层及防风防水外层；出发前7天再看BOM逐日预报。[BOM霍巴特气候](https://www.bom.gov.au/climate/averages/tables/cw_094029.shtml)。&lt;br/&gt;&lt;br/&gt;&lt;b&gt;停留时长&lt;/b&gt; 过夜&lt;br/&gt;&lt;br/&gt;&lt;b&gt;交通&lt;/b&gt; 驾车约82公里自霍巴特机场&lt;br/&gt;&lt;br/&gt;&lt;b&gt;备注&lt;/b&gt;&lt;br/&gt;首选Stewarts Bay Lodge；须书面late check-in。注意：亚瑟港历史遗址本身标记为本次不看。&lt;br/&gt;&lt;br/&gt;&lt;b&gt;英文／检索名&lt;/b&gt; Stewarts Bay Lodge, Port Arthur TAS&lt;br/&gt;&lt;br/&gt;&lt;b&gt;坐标来源&lt;/b&gt; known</description>
        <Point>
          <coordinates>147.87,-43.14,0</coordinates>
        </Point>
      </Placemark>
      <Placemark>
        <name>D6-1 塔斯曼岛海上巡游</name>
        <styleUrl>#sty_d56</styleUrl>
        <description>&lt;b&gt;日期&lt;/b&gt; 2026-09-29 · 第6天&lt;br/&gt;&lt;br/&gt;&lt;b&gt;当日序号&lt;/b&gt; 1&lt;br/&gt;&lt;br/&gt;&lt;b&gt;状态&lt;/b&gt; 本次要看&lt;br/&gt;&lt;br/&gt;&lt;b&gt;看点&lt;/b&gt;&lt;br/&gt;从海上看Cape Pillar、Tasman Island、海蚀拱门和海洞；寻找海豹、海豚、迁徙鲸类、信天翁及其他海鸟；不登岛。&lt;br/&gt;&lt;br/&gt;&lt;b&gt;天气&lt;/b&gt;&lt;br/&gt;**天气（长年气候参考，非逐日预报）：**塔斯曼半岛（Tasman Peninsula）开放海岸约6—14°C，特里阿布纳（Triabunna）约7—16°C；船上海风会显著降低体感，棋盘石遇雨非常湿滑。带防水外壳、保暖层、防滑鞋和晕船药，出发前1—2天同时复查巡游海况、BOM预报和公园工程／关闭警报。&lt;br/&gt;&lt;br/&gt;&lt;b&gt;停留时长&lt;/b&gt; 约3小时（10:00—13:00）&lt;br/&gt;&lt;br/&gt;&lt;b&gt;交通&lt;/b&gt; 巡游中心6961 Arthur Highway&lt;br/&gt;&lt;br/&gt;&lt;b&gt;备注&lt;/b&gt;&lt;br/&gt;Morning Cruise成人AUD190/人；09:15前签到；晕船药提前服。&lt;br/&gt;&lt;br/&gt;&lt;b&gt;英文／检索名&lt;/b&gt; Tasman Island Cruises Booking Centre, Port Arthur TAS&lt;br/&gt;&lt;br/&gt;&lt;b&gt;坐标来源&lt;/b&gt; known</description>
        <Point>
          <coordinates>147.852,-43.1485,0</coordinates>
        </Point>
      </Placemark>
      <Placemark>
        <name>D6-2 塔斯曼拱门/魔鬼厨房</name>
        <styleUrl>#sty_d56</styleUrl>
        <description>&lt;b&gt;日期&lt;/b&gt; 2026-09-29 · 第6天&lt;br/&gt;&lt;br/&gt;&lt;b&gt;当日序号&lt;/b&gt; 2&lt;br/&gt;&lt;br/&gt;&lt;b&gt;状态&lt;/b&gt; 本次要看&lt;br/&gt;&lt;br/&gt;&lt;b&gt;看点&lt;/b&gt;&lt;br/&gt;海浪侵蚀形成的天然拱门、深沟和崖壁；平坦短线约15—30分钟。&lt;br/&gt;&lt;br/&gt;&lt;b&gt;天气&lt;/b&gt;&lt;br/&gt;**天气（长年气候参考，非逐日预报）：**塔斯曼半岛（Tasman Peninsula）开放海岸约6—14°C，特里阿布纳（Triabunna）约7—16°C；船上海风会显著降低体感，棋盘石遇雨非常湿滑。带防水外壳、保暖层、防滑鞋和晕船药，出发前1—2天同时复查巡游海况、BOM预报和公园工程／关闭警报。&lt;br/&gt;&lt;br/&gt;&lt;b&gt;停留时长&lt;/b&gt; 约35分钟&lt;br/&gt;&lt;br/&gt;&lt;b&gt;交通&lt;/b&gt; 驾车约18公里&lt;br/&gt;&lt;br/&gt;&lt;b&gt;备注&lt;/b&gt;&lt;br/&gt;工程关闭至2026-09-18，临行前复查；若延长关闭则跳过。&lt;br/&gt;&lt;br/&gt;&lt;b&gt;英文／检索名&lt;/b&gt; Tasman Arch, Tasman Peninsula TAS&lt;br/&gt;&lt;br/&gt;&lt;b&gt;坐标来源&lt;/b&gt; known</description>
        <Point>
          <coordinates>147.95,-43.043,0</coordinates>
        </Point>
      </Placemark>
      <Placemark>
        <name>D6-3 棋盘石</name>
        <styleUrl>#sty_d56</styleUrl>
        <description>&lt;b&gt;日期&lt;/b&gt; 2026-09-29 · 第6天&lt;br/&gt;&lt;br/&gt;&lt;b&gt;当日序号&lt;/b&gt; 3&lt;br/&gt;&lt;br/&gt;&lt;b&gt;状态&lt;/b&gt; 本次要看&lt;br/&gt;&lt;br/&gt;&lt;b&gt;看点&lt;/b&gt;&lt;br/&gt;岩层节理与盐风化形成规则块状纹理；退潮、岩面较干且有侧光时最清楚。&lt;br/&gt;&lt;br/&gt;&lt;b&gt;天气&lt;/b&gt;&lt;br/&gt;**天气（长年气候参考，非逐日预报）：**塔斯曼半岛（Tasman Peninsula）开放海岸约6—14°C，特里阿布纳（Triabunna）约7—16°C；船上海风会显著降低体感，棋盘石遇雨非常湿滑。带防水外壳、保暖层、防滑鞋和晕船药，出发前1—2天同时复查巡游海况、BOM预报和公园工程／关闭警报。&lt;br/&gt;&lt;br/&gt;&lt;b&gt;停留时长&lt;/b&gt; 约30分钟&lt;br/&gt;&lt;br/&gt;&lt;b&gt;交通&lt;/b&gt; 驾车约8公里&lt;br/&gt;&lt;br/&gt;&lt;b&gt;备注&lt;/b&gt;&lt;br/&gt;湿滑或涨潮时只在高处观察。&lt;br/&gt;&lt;br/&gt;&lt;b&gt;英文／检索名&lt;/b&gt; Tessellated Pavement, Eaglehawk Neck TAS&lt;br/&gt;&lt;br/&gt;&lt;b&gt;坐标来源&lt;/b&gt; known</description>
        <Point>
          <coordinates>147.945,-43.009,0</coordinates>
        </Point>
      </Placemark>
      <Placemark>
        <name>D6-4 特里阿布纳</name>
        <styleUrl>#sty_d56</styleUrl>
        <description>&lt;b&gt;日期&lt;/b&gt; 2026-09-29 · 第6天&lt;br/&gt;&lt;br/&gt;&lt;b&gt;当日序号&lt;/b&gt; 4&lt;br/&gt;&lt;br/&gt;&lt;b&gt;状态&lt;/b&gt; 本次要看&lt;br/&gt;&lt;br/&gt;&lt;b&gt;看点&lt;/b&gt;&lt;br/&gt;当晚住码头约1公里内，次日07:45办理玛丽亚岛渡轮。&lt;br/&gt;&lt;br/&gt;&lt;b&gt;天气&lt;/b&gt;&lt;br/&gt;**天气（长年气候参考，非逐日预报）：**塔斯曼半岛（Tasman Peninsula）开放海岸约6—14°C，特里阿布纳（Triabunna）约7—16°C；船上海风会显著降低体感，棋盘石遇雨非常湿滑。带防水外壳、保暖层、防滑鞋和晕船药，出发前1—2天同时复查巡游海况、BOM预报和公园工程／关闭警报。&lt;br/&gt;&lt;br/&gt;&lt;b&gt;停留时长&lt;/b&gt; 过夜&lt;br/&gt;&lt;br/&gt;&lt;b&gt;交通&lt;/b&gt; 驾车约120公里&lt;br/&gt;&lt;br/&gt;&lt;b&gt;备注&lt;/b&gt;&lt;br/&gt;首选Triabunna Barracks；备选Cabin &amp;amp; Caravan Park。&lt;br/&gt;&lt;br/&gt;&lt;b&gt;英文／检索名&lt;/b&gt; Triabunna, Tasmania&lt;br/&gt;&lt;br/&gt;&lt;b&gt;坐标来源&lt;/b&gt; known</description>
        <Point>
          <coordinates>147.915,-42.508,0</coordinates>
        </Point>
      </Placemark>
      <Placemark>
        <name>D6 当日路线</name>
        <styleUrl>#sty_d56_line</styleUrl>
        <description>第6天按顺序串联（示意）</description>
        <LineString>
          <tessellate>1</tessellate>
          <coordinates>147.852,-43.1485,0 147.95,-43.043,0 147.945,-43.009,0 147.915,-42.508,0</coordinates>
        </LineString>
      </Placemark>
      <description>点位数：7</description>
    </Folder>
  </Document>
</kml>