<?xml version='1.0' encoding='utf-8'?>
<kml xmlns="http://www.opengis.net/kml/2.2">
  <Document>
    <name>D7 9/30 霍巴特／塔斯曼岛当日团</name>
    <Style id="sty_d7">
      <IconStyle>
        <scale>1.0</scale>
        <Icon>
          <href>http://maps.google.com/mapfiles/kml/paddle/ltblu-circle.png</href>
        </Icon>
      </IconStyle>
    </Style>
    <Style id="sty_d7_line">
      <LineStyle>
        <color>7fffff00</color>
        <width>3</width>
      </LineStyle>
    </Style>
    <Style id="sty_confirmed_lodging">
      <IconStyle>
        <scale>1.0</scale>
        <Icon>
          <href>http://maps.google.com/mapfiles/kml/pal2/icon10.png</href>
        </Icon>
      </IconStyle>
    </Style>
    <Folder>
      <name>D7 9/30 霍巴特／塔斯曼岛当日团</name>
      <Placemark>
        <name>D7-1 Blowhole pier</name>
        <styleUrl>#sty_d7</styleUrl>
        <description>&lt;b&gt;日期&lt;/b&gt; 2026-09-30 · 第7天&lt;br/&gt;&lt;br/&gt;&lt;b&gt;当日序号&lt;/b&gt; 1&lt;br/&gt;&lt;br/&gt;&lt;b&gt;状态&lt;/b&gt; 本次要看&lt;br/&gt;&lt;br/&gt;&lt;b&gt;看点&lt;/b&gt;&lt;br/&gt;Wild Ocean Tasmania集合点：喷水洞旁码头；预留约10分钟停车并步行下码头。&lt;br/&gt;&lt;br/&gt;&lt;b&gt;天气&lt;/b&gt;&lt;br/&gt;**天气（长年气候参考，非逐日预报）：**Sorell／Eaglehawk Neck／塔斯曼半岛开放海岸约6—14°C；船上海风会显著降低体感。带防水外壳、保暖层、防滑鞋和晕船药，出发前1—2天复查巡游海况与BOM预报。&lt;br/&gt;&lt;br/&gt;&lt;b&gt;停留时长&lt;/b&gt; 07:50前到达／08:00开船&lt;br/&gt;&lt;br/&gt;&lt;b&gt;交通&lt;/b&gt; 从Iron Creek Bay Estate自驾约45—55公里／约50分钟&lt;br/&gt;&lt;br/&gt;&lt;b&gt;备注&lt;/b&gt;&lt;br/&gt;【核销】订单RJ3SPTY｜集合 pier next to the Blowhole｜运营商165b Pirates Bay Drive, Eaglehawk Neck TAS 7179｜电话+61 (0) 473 770 416。[一键导航](https://www.google.com/maps/search/?api=1&amp;amp;query=The+Blowhole+Eaglehawk+Neck+TAS)。勿停餐车旁1小时限停位。&lt;br/&gt;&lt;br/&gt;&lt;b&gt;英文／检索名&lt;/b&gt; The Blowhole pier, Eaglehawk Neck TAS 7179&lt;br/&gt;&lt;br/&gt;&lt;b&gt;坐标来源&lt;/b&gt; official_address</description>
        <Point>
          <coordinates>147.9255,-43.0035,0</coordinates>
        </Point>
      </Placemark>
      <Placemark>
        <name>D7-2 Wild Ocean Tasman…</name>
        <styleUrl>#sty_d7</styleUrl>
        <description>&lt;b&gt;日期&lt;/b&gt; 2026-09-30 · 第7天&lt;br/&gt;&lt;br/&gt;&lt;b&gt;当日序号&lt;/b&gt; 2&lt;br/&gt;&lt;br/&gt;&lt;b&gt;状态&lt;/b&gt; 本次要看&lt;br/&gt;&lt;br/&gt;&lt;b&gt;看点&lt;/b&gt;&lt;br/&gt;2+ hour Scenic Tour：海崖、海洞、海豹与野生动物；鲸类属迁徙季机会不保证。&lt;br/&gt;&lt;br/&gt;&lt;b&gt;天气&lt;/b&gt;&lt;br/&gt;**天气（长年气候参考，非逐日预报）：**Sorell／Eaglehawk Neck／塔斯曼半岛开放海岸约6—14°C；船上海风会显著降低体感。带防水外壳、保暖层、防滑鞋和晕船药，出发前1—2天复查巡游海况与BOM预报。&lt;br/&gt;&lt;br/&gt;&lt;b&gt;停留时长&lt;/b&gt; 约2小时＋（08:00出发）&lt;br/&gt;&lt;br/&gt;&lt;b&gt;交通&lt;/b&gt; 自驾至Blowhole pier登船&lt;br/&gt;&lt;br/&gt;&lt;b&gt;备注&lt;/b&gt;&lt;br/&gt;【核销】订单RJ3SPTY｜原订2026-09-29 08:00，已改期为2026-09-30 08:00｜已付AUD 340.00。天气／最少4人成团；出发前一日约17:00邮件最终确认。&lt;br/&gt;&lt;br/&gt;&lt;b&gt;英文／检索名&lt;/b&gt; Wild Ocean Tasmania, Eaglehawk Neck TAS&lt;br/&gt;&lt;br/&gt;&lt;b&gt;坐标来源&lt;/b&gt; known</description>
        <Point>
          <coordinates>148.065,-42.582,0</coordinates>
        </Point>
      </Placemark>
      <Placemark>
        <name>D7-3 塔斯曼拱门/魔鬼厨房</name>
        <styleUrl>#sty_d7</styleUrl>
        <description>&lt;b&gt;日期&lt;/b&gt; 2026-09-30 · 第7天&lt;br/&gt;&lt;br/&gt;&lt;b&gt;当日序号&lt;/b&gt; 3&lt;br/&gt;&lt;br/&gt;&lt;b&gt;状态&lt;/b&gt; 本次要看&lt;br/&gt;&lt;br/&gt;&lt;b&gt;看点&lt;/b&gt;&lt;br/&gt;巡游后自驾短停；天然拱门、深沟和崖壁。&lt;br/&gt;&lt;br/&gt;&lt;b&gt;天气&lt;/b&gt;&lt;br/&gt;**天气（长年气候参考，非逐日预报）：**Sorell／Eaglehawk Neck／塔斯曼半岛开放海岸约6—14°C；船上海风会显著降低体感。带防水外壳、保暖层、防滑鞋和晕船药，出发前1—2天复查巡游海况与BOM预报。&lt;br/&gt;&lt;br/&gt;&lt;b&gt;停留时长&lt;/b&gt; 约15—30分钟&lt;br/&gt;&lt;br/&gt;&lt;b&gt;交通&lt;/b&gt; 自驾（巡游结束后）&lt;br/&gt;&lt;br/&gt;&lt;b&gt;备注&lt;/b&gt;&lt;br/&gt;工程状态须临行复查。&lt;br/&gt;&lt;br/&gt;&lt;b&gt;英文／检索名&lt;/b&gt; Tasman Arch, Tasman Peninsula TAS&lt;br/&gt;&lt;br/&gt;&lt;b&gt;坐标来源&lt;/b&gt; approx</description>
        <Point>
          <coordinates>147.95,-43.0425,0</coordinates>
        </Point>
      </Placemark>
      <Placemark>
        <name>D7-4 棋盘石</name>
        <styleUrl>#sty_d7</styleUrl>
        <description>&lt;b&gt;日期&lt;/b&gt; 2026-09-30 · 第7天&lt;br/&gt;&lt;br/&gt;&lt;b&gt;当日序号&lt;/b&gt; 4&lt;br/&gt;&lt;br/&gt;&lt;b&gt;状态&lt;/b&gt; 本次要看&lt;br/&gt;&lt;br/&gt;&lt;b&gt;看点&lt;/b&gt;&lt;br/&gt;巡游后近旁自驾短停；岩层节理与盐风化形成的规则纹理。&lt;br/&gt;&lt;br/&gt;&lt;b&gt;天气&lt;/b&gt;&lt;br/&gt;**天气（长年气候参考，非逐日预报）：**Sorell／Eaglehawk Neck／塔斯曼半岛开放海岸约6—14°C；船上海风会显著降低体感。带防水外壳、保暖层、防滑鞋和晕船药，出发前1—2天复查巡游海况与BOM预报。&lt;br/&gt;&lt;br/&gt;&lt;b&gt;停留时长&lt;/b&gt; 约20—40分钟&lt;br/&gt;&lt;br/&gt;&lt;b&gt;交通&lt;/b&gt; 自驾（Blowhole近旁）&lt;br/&gt;&lt;br/&gt;&lt;b&gt;备注&lt;/b&gt;&lt;br/&gt;湿滑或涨潮时只在高处观察。&lt;br/&gt;&lt;br/&gt;&lt;b&gt;英文／检索名&lt;/b&gt; Tessellated Pavement, Eaglehawk Neck TAS&lt;br/&gt;&lt;br/&gt;&lt;b&gt;坐标来源&lt;/b&gt; approx</description>
        <Point>
          <coordinates>147.9294,-43.0136,0</coordinates>
        </Point>
      </Placemark>
      <Placemark>
        <name>D7 当日路线</name>
        <styleUrl>#sty_d7_line</styleUrl>
        <description>第7天按顺序串联（示意）</description>
        <LineString>
          <tessellate>1</tessellate>
          <coordinates>147.9255,-43.0035,0 148.065,-42.582,0 147.95,-43.0425,0 147.9294,-43.0136,0</coordinates>
        </LineString>
      </Placemark>
      <description>点位数：4</description>
    </Folder>
  </Document>
</kml>