<?xml version='1.0' encoding='utf-8'?>
<kml xmlns="http://www.opengis.net/kml/2.2">
  <Document>
    <name>D7 9/30 霍巴特／玛丽亚岛当日团</name>
    <Style id="sty_d7">
      <IconStyle>
        <scale>1.0</scale>
        <Icon>
          <href>http://maps.google.com/mapfiles/kml/paddle/ltblu-circle.png</href>
        </Icon>
      </IconStyle>
    </Style>
    <Style id="sty_d7_line">
      <LineStyle>
        <color>7fffff00</color>
        <width>3</width>
      </LineStyle>
    </Style>
    <Style id="sty_confirmed_lodging">
      <IconStyle>
        <scale>1.0</scale>
        <Icon>
          <href>http://maps.google.com/mapfiles/kml/pal2/icon10.png</href>
        </Icon>
      </IconStyle>
    </Style>
    <Folder>
      <name>D7 9/30 霍巴特／玛丽亚岛当日团</name>
      <Placemark>
        <name>D7-1 20 Davey Street</name>
        <styleUrl>#sty_d7</styleUrl>
        <description>&lt;b&gt;日期&lt;/b&gt; 2026-09-30 · 第7天&lt;br/&gt;&lt;br/&gt;&lt;b&gt;当日序号&lt;/b&gt; 1&lt;br/&gt;&lt;br/&gt;&lt;b&gt;状态&lt;/b&gt; 本次要看&lt;br/&gt;&lt;br/&gt;&lt;b&gt;看点&lt;/b&gt;&lt;br/&gt;Maria Island当日团的Hobart集合区域；最终位置以电子票为准。&lt;br/&gt;&lt;br/&gt;&lt;b&gt;天气&lt;/b&gt;&lt;br/&gt;**天气（长年气候参考，非逐日预报）：**霍巴特／特里阿布纳／Maria Island约7—17°C，海上和岛屿开阔处体感更低，阵雨、强风和船班调整均可能发生。带防水外壳、保暖层、防滑鞋、防晒和足量饮水。&lt;br/&gt;&lt;br/&gt;&lt;b&gt;停留时长&lt;/b&gt; 提前15分钟到达&lt;br/&gt;&lt;br/&gt;&lt;b&gt;交通&lt;/b&gt; 从Quest Savoy步行约4—7分钟&lt;br/&gt;&lt;br/&gt;&lt;b&gt;备注&lt;/b&gt;&lt;br/&gt;选择含Hobart—Triabunna往返接送的产品。&lt;br/&gt;&lt;br/&gt;&lt;b&gt;英文／检索名&lt;/b&gt; Tasmanian Travel and Information Centre, 20 Davey Street, Hobart TAS&lt;br/&gt;&lt;br/&gt;&lt;b&gt;坐标来源&lt;/b&gt; google_maps</description>
        <Point>
          <coordinates>147.3317785,-42.8830842,0</coordinates>
        </Point>
      </Placemark>
      <Placemark>
        <name>D7-2 玛丽亚岛</name>
        <styleUrl>#sty_d7</styleUrl>
        <description>&lt;b&gt;日期&lt;/b&gt; 2026-09-30 · 第7天&lt;br/&gt;&lt;br/&gt;&lt;b&gt;当日序号&lt;/b&gt; 2&lt;br/&gt;&lt;br/&gt;&lt;b&gt;状态&lt;/b&gt; 本次要看&lt;br/&gt;&lt;br/&gt;&lt;b&gt;看点&lt;/b&gt;&lt;br/&gt;Darlington草地观察袋熊、袋鼠和斑胸草雁；按潮汐走彩绘崖或化石崖二选一。&lt;br/&gt;&lt;br/&gt;&lt;b&gt;天气&lt;/b&gt;&lt;br/&gt;**天气（长年气候参考，非逐日预报）：**霍巴特／特里阿布纳／Maria Island约7—17°C，海上和岛屿开阔处体感更低，阵雨、强风和船班调整均可能发生。带防水外壳、保暖层、防滑鞋、防晒和足量饮水。&lt;br/&gt;&lt;br/&gt;&lt;b&gt;停留时长&lt;/b&gt; 全天&lt;br/&gt;&lt;br/&gt;&lt;b&gt;交通&lt;/b&gt; Hobart往返旅行团＋渡轮&lt;br/&gt;&lt;br/&gt;&lt;b&gt;备注&lt;/b&gt;&lt;br/&gt;自带午餐饮水；产品包含范围以订单为准。&lt;br/&gt;&lt;br/&gt;【愿望清单·景点／自然】&lt;br/&gt;[岛上只有渡轮可达且游客不能开车上岛](https://parks.tas.gov.au/explore-our-parks/maria-island-national-park)；有袋熊、袋鼠、Painted Cliffs 与 Fossil Cliffs。  &lt;br/&gt;**深度补充：**岛上无游客汽车，Darlington草地、Fossil Cliffs、Painted Cliffs和开放林地形成步行／骑行尺度。袋熊白天也常见，但清晨、傍晚更活跃；Painted Cliffs接近条件受潮汐控制。  &lt;br/&gt;**扩展阅读：**[景点／自然官方资料](https://parks.tas.gov.au/explore-our-parks/maria-island-national-park)&lt;br/&gt;&lt;br/&gt;【愿望清单·人文】&lt;br/&gt;Darlington Probation Station 属于世界遗产流放遗址；岛屿同时有 Tyreddeme Aboriginal history、殖民工业尝试与保育迁入物种史。袋熊很亲近人并不代表可以摸。  &lt;br/&gt;**深度补充：**Tyreddeme people的Country、Darlington流放站、后来的水泥和丝绸等工业实验、以及袋獾保险种群迁入，共同形成复杂历史。世界遗产建筑与当代保育都不能只做动物自拍背景。  &lt;br/&gt;**扩展阅读：**[人文／历史延伸阅读](https://encountermaria.com.au/history/)&lt;br/&gt;&lt;br/&gt;【愿望清单·本次建议】&lt;br/&gt;9/30已纳入主行程：从特里阿布纳（Triabunna）乘08:30官方渡轮上岛、16:15返回；以Darlington（达灵顿）动物观察为核心，并按潮汐在Painted Cliffs（彩绘崖）与Fossil Cliffs（化石崖）中选择一条轻量路线。  &lt;br/&gt;**已纳入本次行程**&lt;br/&gt;&lt;br/&gt;&lt;b&gt;英文／检索名&lt;/b&gt; Darlington, Maria Island Tasmania&lt;br/&gt;&lt;br/&gt;&lt;b&gt;坐标来源&lt;/b&gt; known</description>
        <Point>
          <coordinates>148.065,-42.582,0</coordinates>
        </Point>
      </Placemark>
      <description>点位数：2</description>
    </Folder>
  </Document>
</kml>