<?xml version='1.0' encoding='utf-8'?>
<kml xmlns="http://www.opengis.net/kml/2.2">
  <Document>
    <name>D8 10/1 酒杯湾→朗塞斯顿</name>
    <Style id="sty_d8">
      <IconStyle>
        <scale>1.0</scale>
        <Icon>
          <href>http://maps.google.com/mapfiles/kml/paddle/blu-circle.png</href>
        </Icon>
      </IconStyle>
    </Style>
    <Style id="sty_d8_line">
      <LineStyle>
        <color>7fff0000</color>
        <width>3</width>
      </LineStyle>
    </Style>
    <Folder>
      <name>D8 10/1 酒杯湾→朗塞斯顿</name>
      <Placemark>
        <name>D8-1 酒杯湾观景台</name>
        <styleUrl>#sty_d8</styleUrl>
        <description>&lt;b&gt;日期&lt;/b&gt; 2026-10-01 · 第8天&lt;br/&gt;&lt;br/&gt;&lt;b&gt;当日序号&lt;/b&gt; 1&lt;br/&gt;&lt;br/&gt;&lt;b&gt;状态&lt;/b&gt; 本次要看&lt;br/&gt;&lt;br/&gt;&lt;b&gt;看点&lt;/b&gt;&lt;br/&gt;弧形白沙湾、蓝绿色海水和粉红花岗岩山体；上午09:00—11:00光线已足以呈现水色。&lt;br/&gt;&lt;br/&gt;&lt;b&gt;天气&lt;/b&gt;&lt;br/&gt;**天气（长年气候参考，非逐日预报）：**科尔斯湾约7—17°C，朗塞斯顿约6—17°C；上午步道可能湿滑，沿途可能有阵雨和侧风。&lt;br/&gt;&lt;br/&gt;&lt;b&gt;停留时长&lt;/b&gt; 约1.5—2小时&lt;br/&gt;&lt;br/&gt;&lt;b&gt;交通&lt;/b&gt; 往返步行约2.6公里Grade 3&lt;br/&gt;&lt;br/&gt;&lt;b&gt;备注&lt;/b&gt;&lt;br/&gt;不下海滩；需有效parks pass。&lt;br/&gt;&lt;br/&gt;【愿望清单·景点／自然】&lt;br/&gt;[Hazards 花岗岩山体、白沙湾与 sheltered coves](https://parks.tas.gov.au/explore-our-parks/freycinet-national-park) 是核心。Lookout 往返与下到海滩是两种完全不同的体力安排。  &lt;br/&gt;**深度补充：**Hazards山体由粉红花岗岩构成，白沙湾、蓝绿色浅水和sheltered coves形成强烈色彩对比。Lookout与下到海滩体力差异大；本行程只做观景台，可避免占用额外2—3小时。  &lt;br/&gt;**扩展阅读：**[景点／自然官方资料](https://parks.tas.gov.au/explore-our-parks/freycinet-national-park)&lt;br/&gt;&lt;br/&gt;【愿望清单·人文】&lt;br/&gt;Freycinet Peninsula 属于 Oyster Bay nation、toorerno-maire-mener clan 的文化范围。欧洲名称来自法国航海者；理解地名能避免把海湾只看成明信片。  &lt;br/&gt;**深度补充：**半岛位于Oyster Bay nation相关Country；欧洲名称来自法国航海探测。Wineglass Bay名称常被附会为捕鲸血水，证据并不统一，阅读时应区分有文献支持的历史和旅游传说。  &lt;br/&gt;**扩展阅读：**[人文／历史延伸阅读](https://tacinc.com.au/tasmanian-aboriginal-place-names/)&lt;br/&gt;&lt;br/&gt;【愿望清单·本次建议】&lt;br/&gt;10/1上午已纳入主行程：约08:30—10:15完成Wineglass Bay Lookout（酒杯湾观景台）往返，晴朗白天可清楚看见弧形白沙、蓝绿色海水与Hazards（哈泽兹山脉）；午餐后直接驾车前往朗塞斯顿，不再前往比舍诺。  &lt;br/&gt;**已纳入本次行程**&lt;br/&gt;&lt;br/&gt;&lt;b&gt;英文／检索名&lt;/b&gt; Wineglass Bay Lookout, Freycinet TAS&lt;br/&gt;&lt;br/&gt;&lt;b&gt;坐标来源&lt;/b&gt; known</description>
        <Point>
          <coordinates>148.29,-42.145,0</coordinates>
        </Point>
      </Placemark>
      <Placemark>
        <name>D8-2 图维尔角灯塔步道</name>
        <styleUrl>#sty_d8</styleUrl>
        <description>&lt;b&gt;日期&lt;/b&gt; 2026-10-01 · 第8天&lt;br/&gt;&lt;br/&gt;&lt;b&gt;当日序号&lt;/b&gt; 2&lt;br/&gt;&lt;br/&gt;&lt;b&gt;状态&lt;/b&gt; 本次要看&lt;br/&gt;&lt;br/&gt;&lt;b&gt;看点&lt;/b&gt;&lt;br/&gt;约600米轻量环线；高处看菲欣纳海岸、The Nuggets和外海；可岸观鲸类。&lt;br/&gt;&lt;br/&gt;&lt;b&gt;天气&lt;/b&gt;&lt;br/&gt;**天气（长年气候参考，非逐日预报）：**科尔斯湾约7—17°C，朗塞斯顿约6—17°C；上午步道可能湿滑，沿途可能有阵雨和侧风。&lt;br/&gt;&lt;br/&gt;&lt;b&gt;停留时长&lt;/b&gt; 约40分钟&lt;br/&gt;&lt;br/&gt;&lt;b&gt;交通&lt;/b&gt; 驾车约7公里&lt;br/&gt;&lt;br/&gt;&lt;b&gt;备注&lt;/b&gt;&lt;br/&gt;白天视野最好。&lt;br/&gt;&lt;br/&gt;&lt;b&gt;英文／检索名&lt;/b&gt; Cape Tourville Lighthouse, Freycinet TAS&lt;br/&gt;&lt;br/&gt;&lt;b&gt;坐标来源&lt;/b&gt; known</description>
        <Point>
          <coordinates>148.34,-42.122,0</coordinates>
        </Point>
      </Placemark>
      <Placemark>
        <name>D8-3 蜜月湾</name>
        <styleUrl>#sty_d8</styleUrl>
        <description>&lt;b&gt;日期&lt;/b&gt; 2026-10-01 · 第8天&lt;br/&gt;&lt;br/&gt;&lt;b&gt;当日序号&lt;/b&gt; 3&lt;br/&gt;&lt;br/&gt;&lt;b&gt;状态&lt;/b&gt; 本次要看&lt;br/&gt;&lt;br/&gt;&lt;b&gt;看点&lt;/b&gt;&lt;br/&gt;海湾短停、休息和拍摄花岗岩海岸。&lt;br/&gt;&lt;br/&gt;&lt;b&gt;天气&lt;/b&gt;&lt;br/&gt;**天气（长年气候参考，非逐日预报）：**科尔斯湾约7—17°C，朗塞斯顿约6—17°C；上午步道可能湿滑，沿途可能有阵雨和侧风。&lt;br/&gt;&lt;br/&gt;&lt;b&gt;停留时长&lt;/b&gt; 约35分钟&lt;br/&gt;&lt;br/&gt;&lt;b&gt;交通&lt;/b&gt; 驾车约6公里&lt;br/&gt;&lt;br/&gt;&lt;b&gt;备注&lt;/b&gt;&lt;br/&gt;轻量短停。&lt;br/&gt;&lt;br/&gt;&lt;b&gt;英文／检索名&lt;/b&gt; Honeymoon Bay, Freycinet TAS&lt;br/&gt;&lt;br/&gt;&lt;b&gt;坐标来源&lt;/b&gt; known</description>
        <Point>
          <coordinates>148.31,-42.145,0</coordinates>
        </Point>
      </Placemark>
      <Placemark>
        <name>D8-4 朗塞斯顿</name>
        <styleUrl>#sty_d8</styleUrl>
        <description>&lt;b&gt;日期&lt;/b&gt; 2026-10-01 · 第8天&lt;br/&gt;&lt;br/&gt;&lt;b&gt;当日序号&lt;/b&gt; 4&lt;br/&gt;&lt;br/&gt;&lt;b&gt;状态&lt;/b&gt; 本次要看&lt;br/&gt;&lt;br/&gt;&lt;b&gt;看点&lt;/b&gt;&lt;br/&gt;下午抵达朗塞斯顿，固定住宿并为次日塔玛河谷行程休息。&lt;br/&gt;&lt;br/&gt;&lt;b&gt;天气&lt;/b&gt;&lt;br/&gt;**天气（长年气候参考，非逐日预报）：**科尔斯湾约7—17°C，朗塞斯顿约6—17°C；上午步道可能湿滑，沿途可能有阵雨和侧风。&lt;br/&gt;&lt;br/&gt;&lt;b&gt;停留时长&lt;/b&gt; 过夜&lt;br/&gt;&lt;br/&gt;&lt;b&gt;交通&lt;/b&gt; 约13:00自科尔斯湾出发，驾车约176公里／预留2.5小时&lt;br/&gt;&lt;br/&gt;&lt;b&gt;备注&lt;/b&gt;&lt;br/&gt;首选Peppers Silo Hotel；预计15:20—15:40抵达，不再夜驾。&lt;br/&gt;&lt;br/&gt;&lt;b&gt;英文／检索名&lt;/b&gt; Launceston, Tasmania&lt;br/&gt;&lt;br/&gt;&lt;b&gt;坐标来源&lt;/b&gt; known</description>
        <Point>
          <coordinates>147.1441,-41.4332,0</coordinates>
        </Point>
      </Placemark>
      <Placemark>
        <name>D8 当日路线</name>
        <styleUrl>#sty_d8_line</styleUrl>
        <description>第8天按顺序串联（示意）</description>
        <LineString>
          <tessellate>1</tessellate>
          <coordinates>148.29,-42.145,0 148.34,-42.122,0 148.31,-42.145,0 147.1441,-41.4332,0</coordinates>
        </LineString>
      </Placemark>
      <description>点位数：4</description>
    </Folder>
  </Document>
</kml>